{"type": "FeatureCollection", "features": [{"type": "Feature", "geometry": {"type": "Point", "coordinates": [-9.403909, 38.707679]}, "properties": {"name": "School Cascais Theater Practitioner", "cat": "acting", "info": "💶 дзвонити (PT) · ★ 4.7 (46) · 4.6 км<br>Технічна театральна школа.<br>📍 Edifício Cruzeiro, Academia das Artes do Estoril, Av das Acácias 2 3º piso, 2765-294 Estoril, Portugal<br>☎ +351 21 464 6150<br>http://www.eptc.pt/"}}, {"type": "Feature", "geometry": {"type": "Point", "coordinates": [-9.42009, 38.6986]}, "properties": {"name": "ArtHome International", "cat": "acting", "info": "💶 дзвонити · ★ 4.9 (29) · 5.7 км<br>Міжнародний арт-центр.<br>📍 R. da Palmeira 1, 2750-414 Cascais, Portugal<br>☎ +351 917 226 497<br>https://arthomeint.com/pt/cascais-pt/"}}, {"type": "Feature", "geometry": {"type": "Point", "coordinates": [-9.419543, 38.698764]}, "properties": {"name": "Calliope Theatre Company", "cat": "acting", "info": "★ 5 (8) · 5.7 км<br>Children's theater. Деталі/ціни — дзвонити або сайт.<br>📍 R. Frederico Arouca 368 1 esq, 2750-353 Cascais, Portugal<br>☎ +351 968 412 398<br>http://www.calliopetheatrecompany.pt/"}}, {"type": "Feature", "geometry": {"type": "Point", "coordinates": [-9.418687, 38.705504]}, "properties": {"name": "FACTOR International Acting School", "cat": "acting", "info": "💶 $30/клас · 5-pack $140 · 10-pack $250 · приват $100 · 7-дн БЕЗКОШТ пробне · ★ 5 (9) · 5.8 км<br>Англ акторка+імпров, новачки, міжнародна група. Найближче англомовне. 🏆<br>📍 Av. Costa Pinto 560, 2750-329 Cascais, Portugal<br>☎ +351 961 951 261<br>https://factoracting.com/"}}, {"type": "Feature", "geometry": {"type": "Point", "coordinates": [-9.397135, 38.707267]}, "properties": {"name": "Artfeist - Produções Artísticas", "cat": "acting", "info": "★ 5 (7) · 4.1 км<br>театр перформансу. Деталі/ціни — дзвонити або сайт.<br>📍 Edifico Casino Estoril - Auditório, Av. Dr. Stanley Ho, 2765-190 Estoril, Portugal<br>☎ +351 21 466 7708<br>https://artfeist.pt/"}}, {"type": "Feature", "geometry": {"type": "Point", "coordinates": [-9.141058, 38.709911]}, "properties": {"name": "Act Attack Theater Lisbon", "cat": "acting", "info": "💶 €35 drop-in / packs · ★ 5 (15) · 18.6 км<br>Англ акторка+імпров, вік 25-45, без досвіду (Лісабон).<br>📍 R. Anchieta 5, 1200-445 Lisboa, Portugal<br>☎ +34 644 92 85 41<br>https://lisbon.actattacktheater.com/"}}, {"type": "Feature", "geometry": {"type": "Point", "coordinates": [-9.153632, 38.708932]}, "properties": {"name": "Republic of Comedy", "cat": "acting", "info": "💶 виступи · ★ 4.9 (235) · 17.5 км<br>Комеді/імпров (Лісабон).<br>📍 Xafarix Bar, Av. Dom Carlos I 69, 1200-647 Lisboa, Portugal<br>https://republic.show/"}}, {"type": "Feature", "geometry": {"type": "Point", "coordinates": [-9.162616, 38.725996]}, "properties": {"name": "In Impetus", "cat": "acting", "info": "💶 дзвонити (PT) · ★ 4.4 (54) · 17.1 км<br>Драм-школа (Лісабон).<br>📍 R. de Campolide 27A, 1070-026 Lisboa, Portugal<br>☎ +351 932 667 852<br>http://www.inimpetus.org/"}}, {"type": "Feature", "geometry": {"type": "Point", "coordinates": [-9.143878, 38.728872]}, "properties": {"name": "Lisboa Comedy Club", "cat": "acting", "info": "💶 виступи · ★ 4.4 (870) · 18.7 км<br>Комеді-клаб (Лісабон).<br>📍 Av. Duque de Loulé 3A, 1050-085 Lisboa, Portugal<br>http://www.lisboacomedyclub.pt/"}}, {"type": "Feature", "geometry": {"type": "Point", "coordinates": [-9.387218, 38.709874]}, "properties": {"name": "Auditorium Senhora da Boa Nova", "cat": "acting", "info": "★ 4.6 (482) · 3.5 км<br>аудиторія. Деталі/ціни — дзвонити або сайт.<br>📍 R. do Campo Santo 2765, Estoril, Portugal<br>☎ +351 21 467 8610<br>https://www.sraboanova.pt/"}}, {"type": "Feature", "geometry": {"type": "Point", "coordinates": [-9.410687, 38.709405]}, "properties": {"name": "Workshop de Teatro Trajetória Primordial", "cat": "acting", "info": "💶 дзвонити (PT) · ★ 4.7 (23) · 5.2 км<br>Театральний воркшоп.<br>📍 Av. Sra. Monte da Saúde, 2765-419 Estoril, Portugal<br>☎ +351 935 575 192<br>https://www.instagram.com/trajetoriaprimordial/"}}, {"type": "Feature", "geometry": {"type": "Point", "coordinates": [-9.403664, 38.707398]}, "properties": {"name": "Teatro Experimental de Cascais", "cat": "acting", "info": "💶 дзвонити (PT) · ★ 4.5 (468) · 4.6 км<br>Театр + можливі воркшопи.<br>📍 Teatro Municipal Mirita Casimiro, Av. Fausto de Figueiredo, 2765-412 Estoril, Portugal<br>☎ +351 21 467 0320<br>https://www.tecascais.com/"}}, {"type": "Feature", "geometry": {"type": "Point", "coordinates": [-9.397849, 38.70707]}, "properties": {"name": "Auditório do Casino Estoril", "cat": "acting", "info": "★ 4.5 (196) · 4.1 км<br>аудиторія. Деталі/ціни — дзвонити або сайт.<br>📍 2765-617 Estoril, Portugal<br>☎ +351 21 466 7708<br>https://www.facebook.com/artfeist/"}}, {"type": "Feature", "geometry": {"type": "Point", "coordinates": [-9.333613, 38.779203]}, "properties": {"name": "Estudio 3 - Dança Teatro Música", "cat": "acting", "info": "💶 дзвонити (PT) · ★ 4.9 (36) · 9.9 км<br>Танець-театр-музика (перформанс/рух).<br>📍 Av. Irene Lisboa 54F, 2635-001 Rio de Mouro, Portugal<br>☎ +351 21 920 9171<br>http://www.estudio3site.com/"}}, {"type": "Feature", "geometry": {"type": "Point", "coordinates": [-9.380627, 38.803898]}, "properties": {"name": "Sintra Theater House", "cat": "acting", "info": "★ 4.9 (43) · 12.6 км<br>театр перформансу. Деталі/ціни — дзвонити або сайт.<br>📍 R. Veiga da Cunha 20, 2710-627 Sintra, Portugal<br>☎ +351 21 923 3719<br>http://www.chaodeoliva.com/"}}, {"type": "Feature", "geometry": {"type": "Point", "coordinates": [-9.235276, 38.763489]}, "properties": {"name": "Lisbon Theater and Film School - IPL", "cat": "acting", "info": "★ 4.7 (75) · 13.1 км<br>коледж. Деталі/ціни — дзвонити або сайт.<br>📍 Av. Marquês de Pombal 22B, 2700-571 Amadora, Portugal<br>☎ +351 21 498 9400<br>http://www.estc.ipl.pt/"}}, {"type": "Feature", "geometry": {"type": "Point", "coordinates": [-9.19095, 38.769631]}, "properties": {"name": "Act - Escola de Actores", "cat": "acting", "info": "💶 дзвонити · ★ 4.1 (16) · 16.6 км<br>ACT — школа акторів (Лісабон).<br>📍 R. Rio Cávado 3, 1600-702 Lisboa, Portugal<br>☎ +351 937 852 558<br>http://act-escoladeactores.com/act/"}}, {"type": "Feature", "geometry": {"type": "Point", "coordinates": [-9.137395, 38.758192]}, "properties": {"name": "Academia LFO - Teatro Musical", "cat": "acting", "info": "★ 5 (12) · 20.2 км<br>драм-школа. Деталі/ціни — дзвонити або сайт.<br>📍 R. Eugénio de Castro Rodrigues 9A, 1700-317 Lisboa, Portugal<br>☎ +351 911 167 609<br>http://www.academialfo.pt/"}}, {"type": "Feature", "geometry": {"type": "Point", "coordinates": [-9.186031, 38.747954]}, "properties": {"name": "Stagedoor - Escola de Teatro Musical", "cat": "acting", "info": "★ 5 (5) · 15.9 км<br>драм-школа. Деталі/ціни — дзвонити або сайт.<br>📍 R. Manuel Ferreira de Andrade 8 sobreloja, 1500-416 Lisboa, Portugal<br>☎ +351 21 778 2026<br>https://stagedoor.pt/"}}, {"type": "Feature", "geometry": {"type": "Point", "coordinates": [-9.133853, 38.709463]}, "properties": {"name": "EVOÉ School Theatre", "cat": "acting", "info": "💶 STAGE1 €410, старт 20/10/2026 · ★ 4.7 (66) · 19.3 км<br>Англ імпров-курс (Stephen Thornton), новачки.<br>📍 R. das Canastras 40, 1100-112 Lisboa, Portugal<br>☎ +351 21 888 0838<br>http://www.evoe.pt/"}}, {"type": "Feature", "geometry": {"type": "Point", "coordinates": [-9.4699, 38.825]}, "properties": {"name": "Praia das Maçãs", "cat": "nature", "info": "Пляж · 💶 вхід безкоштовний · басейни €3-16 · 17.8 км<br>Синій прапор, найкраща якість води лінії. Дитячий майданчик на пляжі + окрема океанічна солона басейн-зона (олімпійський + дитячий, з гірками), рятувальники в сезон, історичний трамвай зі Сінтри. Найкраще збалансований пляжний варіант з малою дитиною.<br>📍 Praia das Maçãs, Colares, Sintra, Portugal"}}, {"type": "Feature", "geometry": {"type": "Point", "coordinates": [-9.4763, 38.816]}, "properties": {"name": "Praia Grande (Colares)", "cat": "nature", "info": "Пляж · 💶 вхід безкоштовний · паркування €2-3 · басейн готелю платний · 17.4 км<br>Найширший пляж лінії (900м), сильні хвилі/серфінг. Океанічний басейн готелю Arribas (100м + дитячий, без хвиль, під наглядом) для купання малечі. Бонус: сліди динозаврів на скелях (170 млн р., безкоштовно). Кафе/туалети/душі/парковка є.<br>📍 Praia Grande do Rodízio, Colares, Sintra, Portugal"}}, {"type": "Feature", "geometry": {"type": "Point", "coordinates": [-9.485, 38.8036]}, "properties": {"name": "Praia da Adraga", "cat": "nature", "info": "Пляж · 💶 вхід безкоштовний · 16.8 км<br>Один з найкрасивіших пляжів регіону (Sunday Times топ Європи): темні скелі, арка, печери при відпливі. Асфальтована дорога й паркування є (на відміну від Praia da Ursa — туди пішки крутою стежкою, з малою дитиною НЕ раджу). Хвилі сильні, вода холодна — радше прогулянка по скелях, ніж купання з малям. Дорога вузька й звивиста, влітку паркування забивається.<br>📍 R. da Praia da Adraga, 2765-065 Colares, Portugal"}}, {"type": "Feature", "geometry": {"type": "Point", "coordinates": [-9.416251, 38.714576]}, "properties": {"name": "The Village - Cowork Cascais", "cat": "coworking", "info": "💶 день €20 · Access €120/міс · dedicated €230 · офіс €600 · ★ 4.9 (18) · 5.9 км<br>Відреставрована вілла: сад, басейн, тераса, вид на Sintra-Cascais парк. Casual, міжнародна спільнота, «як вдома у друга». 🏆 топ-фіт. Пн-Пт 8:30-18:00.<br>📍 Rua de Santarém 188A, 2755-282 Alcabideche, Portugal<br>☎ +351 935 831 046<br>http://www.the-village.pt/"}}, {"type": "Feature", "geometry": {"type": "Point", "coordinates": [-9.420865, 38.697085]}, "properties": {"name": "CoWorking Cascais Visitor Center", "cat": "coworking", "info": "5.8 км<br>коворкінг. Деталі/ціни — дзвонити або сайт.<br>📍 Praça 5 de Outubro 45, 2750-642 Cascais, Portugal<br>☎ +351 21 587 0256<br>https://associados.visitcascais.com/cowork-cascais/"}}, {"type": "Feature", "geometry": {"type": "Point", "coordinates": [-9.427077, 38.701811]}, "properties": {"name": "Blue Coworking", "cat": "coworking", "info": "6.4 км<br>оренда офісів/cowork. Деталі/ціни — дзвонити або сайт.<br>📍 Av. Eng. Adelino Amaro da Costa 189 Esc 16, 2750-279 Cascais, Portugal<br>☎ +351 912 534 025<br>https://blue-coworking.netlify.app/"}}, {"type": "Feature", "geometry": {"type": "Point", "coordinates": [-9.39872, 38.706125]}, "properties": {"name": "Av Aida 821", "cat": "coworking", "info": "★ 5 (1) · 4.1 км<br>коворкінг. Деталі/ціни — дзвонити або сайт.<br>📍 Av. Aida 821, 2765-253 Estoril, Portugal<br>☎ +32 2 790 73 66"}}, {"type": "Feature", "geometry": {"type": "Point", "coordinates": [-9.4169, 38.712232]}, "properties": {"name": "Cowork Cascais", "cat": "coworking", "info": "💶 день €20 · Access €120/міс · dedicated €230 · офіс €600 · ★ 4.6 (89) · 5.8 км<br>Відреставрована вілла: сад, басейн, тераса, вид на Sintra-Cascais парк. Casual, міжнародна спільнота, «як вдома у друга». 🏆 топ-фіт. Пн-Пт 8:30-18:00.<br>📍 Casa Nortada, R. Dom Luís da Cunha 63, 2755-274 Alcabideche, Portugal<br>☎ +351 21 484 1177<br>https://www.coworkcascais.pt/?utm_source=google&utm_medium=local&utm_campaign=mybiz"}}, {"type": "Feature", "geometry": {"type": "Point", "coordinates": [-9.394052, 38.739501]}, "properties": {"name": "Estoril Office Center", "cat": "coworking", "info": "★ 4.2 (151) · 6.3 км<br>корпоративний офіс. Деталі/ціни — дзвонити або сайт.<br>📍 Edifício Estoril Office, Av. República Escritório 34, 2649-517, Portugal<br>☎ +351 707 918 911<br>https://estorilofficecenter.pt/"}}, {"type": "Feature", "geometry": {"type": "Point", "coordinates": [-9.420219, 38.701614]}, "properties": {"name": "Cascais Office", "cat": "coworking", "info": "💶 день €20-30 · dedicated €160-220/міс · ★ 5 (4) · 5.8 км<br>Центр Cascais, 2хв від станції, оновлено 2024. Lounge, кухня, балкон.<br>📍 Av. Costa Pinto 91, 2750-786 Cascais, Portugal<br>☎ +351 964 408 904<br>https://cascais-office.pt/"}}, {"type": "Feature", "geometry": {"type": "Point", "coordinates": [-9.382197, 38.705785]}, "properties": {"name": "Lobo Cowork - São João", "cat": "coworking", "info": "💶 день €15 · тиждень €70 · €140-160/міс, 24/7 · ★ 5 (27) · 2.8 км<br>Затишний «як вдома», близько пляж/станція, безкошт.паркінг.<br>📍 R. Gen. Manuel Diogo Neto 179A, São João do Estoril, 2765-334 Estoril, Portugal<br>☎ +351 966 467 842<br>http://www.lobocowork.pt/"}}, {"type": "Feature", "geometry": {"type": "Point", "coordinates": [-9.37348, 38.694906]}, "properties": {"name": "Stella Cowork", "cat": "coworking", "info": "1.7 км<br>коворкінг. Деталі/ціни — дзвонити або сайт.<br>📍 R. Sacadura Cabral 315 Loja 4, 2764-553 Estoril, Portugal<br>☎ +351 928 126 879"}}, {"type": "Feature", "geometry": {"type": "Point", "coordinates": [-9.390735, 38.704209]}, "properties": {"name": "Coworking Santa Rita", "cat": "coworking", "info": "★ 4.4 (28) · 3.4 км<br>коворкінг. Деталі/ціни — дзвонити або сайт.<br>📍 R. Samuel Gonçalves Sanches 19A, 2765-280 Estoril, Portugal<br>☎ +351 937 995 977<br>https://www.santaritacw.pt/"}}, {"type": "Feature", "geometry": {"type": "Point", "coordinates": [-9.31099, 38.7142]}, "properties": {"name": "Regus - Oeiras, Lagoas Park", "cat": "coworking", "info": "★ 4.6 (69) · 4.5 км<br>оренда офісів/cowork. Деталі/ціни — дзвонити або сайт.<br>📍 1st floor South, Lagoas Park 7, 2740-244 Porto Salvo, Portugal<br>☎ +351 21 122 4640<br>https://www.regus.com/pt/pt/4445?utm_source=google_uberall&utm_medium=places&utm_campaign=uberall&utm_content=uberall"}}, {"type": "Feature", "geometry": {"type": "Point", "coordinates": [-9.328992, 38.696033]}, "properties": {"name": "Centro de Escritórios de Oeiras", "cat": "coworking", "info": "★ 1 (1) · 2.3 км<br>Virtual office rental. Деталі/ціни — дзвонити або сайт.<br>📍 Av. da República 120, 2780-158 Oeiras, Portugal<br>☎ +351 21 457 1477"}}, {"type": "Feature", "geometry": {"type": "Point", "coordinates": [-9.294725, 38.714867]}, "properties": {"name": "elo - festas de criança • parental cowork", "cat": "coworking", "info": "★ 5 (17) · 5.8 км<br>коворкінг. Деталі/ціни — дзвонити або сайт.<br>📍 R. Artur Semedo 6 D, 2740-280 Porto Salvo, Portugal<br>☎ +351 910 097 891<br>http://elo.easyweek.pt/"}}, {"type": "Feature", "geometry": {"type": "Point", "coordinates": [-9.292055, 38.694704]}, "properties": {"name": "Marginal Studios", "cat": "coworking", "info": "★ 5 (1) · 5.4 км<br>коворкінг. Деталі/ціни — дзвонити або сайт.<br>📍 R. José Fontana 1 2º Direito, 2770-101 Paço de Arcos, Portugal<br>☎ +351 21 441 1726<br>https://www.marginalstudiosoeiras.com/"}}, {"type": "Feature", "geometry": {"type": "Point", "coordinates": [-9.311109, 38.685802]}, "properties": {"name": "Atlantic Station Oeiras - Lisboa", "cat": "coworking", "info": "💶 Diária €30 · Flex €149 · Fixa €229 · virtual €69/міс · ★ 4.9 (14) · 3.8 км<br>Інновейшн-хаб Oeiras, студія відео, тераса-lounge.<br>📍 Edifício Parque Oceano, Av. Marginal 2 4º A, 2780-337 Oeiras, Portugal<br>☎ +351 912 654 655<br>http://www.atlanticstation.pt/"}}, {"type": "Feature", "geometry": {"type": "Point", "coordinates": [-9.302198, 38.696982]}, "properties": {"name": "Espaço Soul PT", "cat": "coworking", "info": "★ 4.9 (18) · 4.6 км<br>коворкінг. Деталі/ціни — дзвонити або сайт.<br>📍 R. Belo Horizonte 9G R/C, 2780-006 Oeiras, Portugal<br>☎ +351 939 077 288<br>https://espacosoul.pt/"}}, {"type": "Feature", "geometry": {"type": "Point", "coordinates": [-9.248914, 38.702232]}, "properties": {"name": "Cowork GDI Oeiras", "cat": "coworking", "info": "★ 4.7 (11) · 9.3 км<br>Business park. Деталі/ціни — дзвонити або сайт.<br>📍 R. Bento de Jesus Caraça 17C, 1495-705 Cruz Quebrada, Portugal<br>☎ +351 918 752 979<br>https://gdi.pt/"}}, {"type": "Feature", "geometry": {"type": "Point", "coordinates": [-9.326509, 38.681863]}, "properties": {"name": "Aluguer de Salas | SENTE - Cowork Terapêutico | Alugamos Consultórios e salas para Terapias", "cat": "coworking", "info": "★ 4.7 (72) · 2.7 км<br>коворкінг. Деталі/ціни — дзвонити або сайт.<br>📍 Praceta de Portugal 63 Bloco B, Loja A, R. Q.ta de São Gonçalo, 2775-396 Carcavelos, Portugal<br>☎ +351 935 398 812<br>http://senteconsultorios.pt/"}}, {"type": "Feature", "geometry": {"type": "Point", "coordinates": [-9.326149, 38.681953]}, "properties": {"name": "Cowork da Praia", "cat": "coworking", "info": "★ 4.8 (13) · 2.7 км<br>коворкінг. Деталі/ціни — дзвонити або сайт.<br>📍 R. Alemanha 130, 2775-397 Carcavelos, Portugal<br>☎ +351 21 808 4370<br>https://www.coworkdapraia.com/"}}, {"type": "Feature", "geometry": {"type": "Point", "coordinates": [-9.248901, 38.702066]}, "properties": {"name": "GDI Hub", "cat": "coworking", "info": "💶 день €12.50 · тиждень €40 · dedicated €150 · part-time €100/міс · ★ 4.8 (95) · 9.2 км<br>Великий бізнес-центр, 32-столовий світлий cowork, біля Jamor/річки.<br>📍 R. Bento de Jesus Caraça 17C, 1495-686 Cruz Quebrada, Portugal<br>☎ +351 910 383 772<br>https://gdi.pt/"}}, {"type": "Feature", "geometry": {"type": "Point", "coordinates": [-9.292051, 38.695518]}, "properties": {"name": "O Passo", "cat": "coworking", "info": "💶 день €15 · part-time €126-140 · full €171-190 · dedicated €198-220/міс · ★ 4.6 (115) · 5.5 км<br>Cowork+кав'ярня+події, family-friendly (дитяча зона), Сб відкрито.<br>📍 R. Costa Pinto 158, 2770-214 Paço de Arcos, Portugal<br>☎ +351 21 443 2285<br>https://opasso.pt/"}}, {"type": "Feature", "geometry": {"type": "Point", "coordinates": [-9.29398, 38.701258]}, "properties": {"name": "Espaço 11 - Cowork de Saúde e Bem-Estar", "cat": "coworking", "info": "💶 кімнати €13-15/год, пакети · ★ 5 (34) · 5.4 км<br>Ніша для терапевтів/health (консультації, воркшопи).<br>📍 Estrada de Paço de Arcos 9 2º D, 2770-218 Paço de Arcos, Portugal<br>https://www.espaco11.pt/"}}, {"type": "Feature", "geometry": {"type": "Point", "coordinates": [-9.316369, 38.679417]}, "properties": {"name": "CoWork Lab Oeiras", "cat": "coworking", "info": "★ 4 (6) · 3.6 км<br>Business development service. Деталі/ціни — дзвонити або сайт.<br>📍 Av. Marginal, 2780-267 Oeiras, Portugal<br>☎ +351 919 876 545<br>http://www.coworklab.net/portugal/oeiras"}}, {"type": "Feature", "geometry": {"type": "Point", "coordinates": [-9.31719, 38.684434]}, "properties": {"name": "KAI•ZEN - Wellness Hub (Coworking Terapêutico)", "cat": "coworking", "info": "★ 5 (23) · 3.4 км<br>коворкінг. Деталі/ціни — дзвонити або сайт.<br>📍 Av. Dom João I 10 A, 2780-062 Oeiras, Portugal<br>http://kaizenoeiras.pt/"}}, {"type": "Feature", "geometry": {"type": "Point", "coordinates": [-9.38323, 38.803132]}, "properties": {"name": "Iogo - Cowork", "cat": "coworking", "info": "12.6 км<br>коворкінг. Деталі/ціни — дзвонити або сайт.<br>📍 Galeria Comercial de Sintra, Rua Câmara Pestana 2, Loja 4, Edific, B, 2710-719 Sintra, Portugal<br>☎ +351 919 950 359<br>https://iogocowork.com/"}}, {"type": "Feature", "geometry": {"type": "Point", "coordinates": [-9.238008, 38.704443]}, "properties": {"name": "Flow Coworking by Holmes Place", "cat": "coworking", "info": "★ 4.1 (19) · 10.2 км<br>коворкінг. Деталі/ціни — дзвонити або сайт.<br>📍 Praceta Prof. Alfredo de Sousa 8, 1495-072 Algés, Portugal<br>☎ +351 21 828 2542<br>https://flow.holmesplace.pt/pt/"}}, {"type": "Feature", "geometry": {"type": "Point", "coordinates": [-9.218215, 38.695561]}, "properties": {"name": "Sincera Coworking", "cat": "coworking", "info": "★ 5 (1) · 11.9 км<br>коворкінг. Деталі/ціни — дзвонити або сайт.<br>📍 R. de Pedrouços 59A, 1400-285 Lisboa, Portugal<br>☎ +351 917 887 710<br>https://www.sinceracoworking.com/"}}, {"type": "Feature", "geometry": {"type": "Point", "coordinates": [-9.124342, 38.718444]}, "properties": {"name": "Lisbon-Cowork", "cat": "coworking", "info": "💶 день ~€19 · ★ 4.9 (205) · 20.2 км<br>Lisboa, високий рейтинг×205.<br>📍 Rua da Bela Vista à Graça 27A, 1170-058 Lisboa, Portugal<br>☎ +33 6 16 07 55 98<br>https://lisbon-cowork.com/"}}, {"type": "Feature", "geometry": {"type": "Point", "coordinates": [-9.217476, 38.695333]}, "properties": {"name": "Cowork Torre Belém", "cat": "coworking", "info": "★ 4.7 (7) · 11.9 км<br>корпоративний офіс. Деталі/ціни — дзвонити або сайт.<br>📍 R. de Pedrouços 37B, 1400-285 Lisboa, Portugal<br>☎ +351 21 301 0370<br>http://www.coworktorrebelem.pt/"}}, {"type": "Feature", "geometry": {"type": "Point", "coordinates": [-9.3974, 38.7681]}, "properties": {"name": "Lagoa Azul", "cat": "nature", "info": "Озеро · 💶 безкоштовно · 9.2 км<br>Лісове озеро біля Penha Longa. Дитячий майданчик (гойдалки/гірка) прямо біля води, пікнік-столи в тіні, легкі рівні стежки по колу (не лише довгі маршрути). Безкоштовна парковка. 🏆 найближче + є де погратись дитині.<br>📍 Estrada da Lagoa Azul, N9-1, 2710 Sintra, Portugal"}}, {"type": "Feature", "geometry": {"type": "Point", "coordinates": [-9.4221, 38.7639]}, "properties": {"name": "Barragem do Rio da Mula", "cat": "nature", "info": "Озеро · 💶 безкоштовно · 9.9 км<br>Водосховище 1969р. (постачає воду Кашкайшу), маленькі лісові озерця навколо. ⚠️ Схоже, саме це ваше вже відоме «нецікаве» місце з дамбою — перевірте на карті.<br>📍 Estrada Municipal 1335, Malveira da Serra, Alcabideche, Portugal"}}, {"type": "Feature", "geometry": {"type": "Point", "coordinates": [-9.4112, 38.7909]}, "properties": {"name": "Lagoa dos Mosqueiros (через Монсеррате)", "cat": "nature", "info": "Озеро · 💶 квиток парку €10-12/особу, сімейний €33 · 12.0 км<br>⚠️ Секретне лісове озерце. Коротший маршрут (5км/1г40хв) йде ЧЕРЕЗ ПЛАТНИЙ парк Монсеррате — квиток потрібен. Безкоштовний варіант — похід 15-19км/5-6год від дамби Rio da Mula, задовгий з дворічною дитиною. Тому не в топі рекомендацій.<br>📍 Parque de Monserrate, Rua Barbosa du Bocage, 2710-405 Sintra, Portugal<br>https://www.parquesdesintra.pt/pt/parques-monumentos/parque-e-palacio-de-monserrate/"}}, {"type": "Feature", "geometry": {"type": "Point", "coordinates": [-9.423289, 38.708777]}, "properties": {"name": "Personal Fight - Carlos Eduardo", "cat": "martial", "info": "6.2 км<br>спорт-школа. Деталі/ціни — дзвонити або сайт.<br>📍 R. São José 246, 2750-314 Cascais, Portugal<br>☎ +351 938 762 659"}}, {"type": "Feature", "geometry": {"type": "Point", "coordinates": [-9.405917, 38.717312]}, "properties": {"name": "Brave Fight Team - Cascais", "cat": "martial", "info": "★ 5 (4) · 5.3 км<br>клуб бойових. Деталі/ціни — дзвонити або сайт.<br>📍 R. Dom Bosco 532, 2765-613 Estoril, Portugal<br>☎ +351 918 045 499"}}, {"type": "Feature", "geometry": {"type": "Point", "coordinates": [-9.392016, 38.703019]}, "properties": {"name": "Level UP Fight & Fitness", "cat": "martial", "info": "💶 дзвонити · ★ 5 (63) · 3.5 км<br>Fight+fitness. Названий клас «Jiu-Jitsu Iniciantes» (дорослі-новачки), опубл. розклад.<br>📍 Av. Marginal 6744 B, 2765-270 Estoril, Portugal<br>☎ +351 937 390 155<br>https://level-up-site-inky.vercel.app/"}}, {"type": "Feature", "geometry": {"type": "Point", "coordinates": [-9.375773, 38.709854]}, "properties": {"name": "Fight Club Estoril K.O. Team", "cat": "martial", "info": "💶 ~€40/міс (від €3/трен) · ★ 5 (20) · 2.7 км<br>Бокс/кікбокс/муай-тай/MMA. Партнери «5-50 років», спаринг, «family». Класи Beginners+Sparring.<br>📍 Praceta Bartolomeu Dias 62, 2765-180 Estoril, Portugal<br>☎ +351 935 435 207<br>https://koteam.pt/fightclub-estoril/"}}, {"type": "Feature", "geometry": {"type": "Point", "coordinates": [-9.433054, 38.709019]}, "properties": {"name": "STAT Cascais", "cat": "martial", "info": "★ 4.9 (27) · 7.1 км<br>школа бойових мистецтв. Деталі/ціни — дзвонити або сайт.<br>📍 R. Fernão Lopes 103 1º, 2750-663 Cascais, Portugal<br>☎ +351 938 867 038<br>http://www.statartesmarciais.com/"}}, {"type": "Feature", "geometry": {"type": "Point", "coordinates": [-9.423253, 38.708723]}, "properties": {"name": "Checkmat Fontainhas Brazilian Jiu-Jitsu", "cat": "martial", "info": "★ 4.9 (19) · 6.2 км<br>школа бойових мистецтв. Деталі/ціни — дзвонити або сайт.<br>📍 R. São José 246, 2750-135 Cascais, Portugal<br>☎ +351 913 552 033<br>https://sites.google.com/view/brazilian-jiu-jitsu-checkmat/in%C3%ADcio"}}, {"type": "Feature", "geometry": {"type": "Point", "coordinates": [-9.430124, 38.695286]}, "properties": {"name": "Muay Thai Cascais", "cat": "martial", "info": "6.6 км<br>муай-тай/бокс зал. Деталі/ціни — дзвонити або сайт.<br>📍 Av. 25 de Abril, 2750-331 Cascais, Portugal<br>☎ +351 968 718 777<br>https://fredmotta.pt/"}}, {"type": "Feature", "geometry": {"type": "Point", "coordinates": [-9.381828, 38.742035]}, "properties": {"name": "Cascais Fight Center CFC", "cat": "martial", "info": "★ 5 (18) · 6.0 км<br>муай-тай/бокс зал. Деталі/ціни — дзвонити або сайт.<br>📍 R. São Francisco 27, 2645-019 Alcabideche, Portugal<br>☎ +351 962 978 043<br>https://m.facebook.com/cascaisfightcenter/"}}, {"type": "Feature", "geometry": {"type": "Point", "coordinates": [-9.351016, 38.701714]}, "properties": {"name": "K.O. Team - boxing, kickboxing, mma and muay thai", "cat": "martial", "info": "💶 ~€40/міс (від €3/трен) · ★ 4.8 (41) · 1.1 км<br>Бокс/кікбокс/муай-тай/MMA. Партнери «5-50 років», спаринг, «family». Класи Beginners+Sparring.<br>📍 R. Quirino Evangelista 98, 2785-569 São Domingos de Rana, Portugal<br>☎ +351 963 919 855<br>http://koteam.pt/"}}, {"type": "Feature", "geometry": {"type": "Point", "coordinates": [-9.330231, 38.681677]}, "properties": {"name": "Strikers House – Muay Thai & MMA Cascais (Carcavelos)", "cat": "martial", "info": "💶 безкошт. пробне · ★ 5 (46) · 2.4 км<br>MMA/муай-тай/бокс. «Для всіх — новачків, 55+, мам що ніколи не тренувались», англ-friendly. 5.0★.<br>📍 R. Itália 2a Piso 1 / sala G, 2775-417 Carcavelos, Portugal<br>☎ +351 913 378 459<br>https://www.strikershouse.com/"}}, {"type": "Feature", "geometry": {"type": "Point", "coordinates": [-9.441391, 38.70044]}, "properties": {"name": "Lucky's Team", "cat": "martial", "info": "★ 5 (13) · 7.6 км<br>школа бойових мистецтв. Деталі/ціни — дзвонити або сайт.<br>📍 Pavilhão Guilherme Pinto Basto, R. da Torre, 2750-748 Cascais, Portugal<br>☎ +351 965 567 517<br>https://luckys-team.com/"}}, {"type": "Feature", "geometry": {"type": "Point", "coordinates": [-9.30457, 38.691729]}, "properties": {"name": "Arena Club", "cat": "martial", "info": "💶 дзвонити · ★ 4.1 (194) · 4.4 км<br>Загальний gym+бойові, близько.<br>📍 Rua Av.ª, Av. Dr. Francisco de Sá Carneiro 13L, 2780-241 Oeiras, Portugal<br>☎ +351 932 984 234<br>http://www.arenaclub.pt/"}}, {"type": "Feature", "geometry": {"type": "Point", "coordinates": [-9.385174, 38.70473]}, "properties": {"name": "Prime Studio Martial Arts", "cat": "martial", "info": "★ 5 (3) · 3.0 км<br>клуб бойових. Деталі/ціни — дзвонити або сайт.<br>📍 R. Galiza 180, 2765-325 Estoril, Portugal<br>☎ +351 919 455 082<br>https://koteam.pt/kickboxing-estoril-prime/"}}, {"type": "Feature", "geometry": {"type": "Point", "coordinates": [-9.263766, 38.717627]}, "properties": {"name": "Clube Kempo de Oeiras", "cat": "martial", "info": "★ 4.7 (59) · 8.4 км<br>школа кунг-фу. Деталі/ціни — дзвонити або сайт.<br>📍 Estr. Várzeas 23B, 2790-444 Queijas, Portugal<br>☎ +351 916 363 877<br>http://clubekempooeiras.weebly.com/"}}, {"type": "Feature", "geometry": {"type": "Point", "coordinates": [-9.326226, 38.69139]}, "properties": {"name": "Knockout Project Boutique", "cat": "martial", "info": "2.5 км<br>Gymnasium school. Деталі/ціни — дзвонити або сайт.<br>📍 R. Carlos Mardel 71A, 2780-129 Oeiras, Portugal<br>☎ +351 961 359 601<br>https://knockoutproject.pt/"}}, {"type": "Feature", "geometry": {"type": "Point", "coordinates": [-9.279189, 38.712549]}, "properties": {"name": "Academy Village", "cat": "martial", "info": "★ 4.7 (25) · 6.9 км<br>Women's personal trainer. Деталі/ціни — дзвонити або сайт.<br>☎ +351 21 441 4048<br>http://www.academiadavila.com/"}}, {"type": "Feature", "geometry": {"type": "Point", "coordinates": [-9.422831, 38.699644]}, "properties": {"name": "MUJO - Movement & Wellness centre in Cascais", "cat": "martial", "info": "💶 дзвонити · ★ 4.9 (67) · 6.0 км<br>Gracie Jiu-Jitsu + wellness/рух-центр, англ-сайт, casual «для всіх рівнів».<br>📍 R. Dom Francisco de Avilez 26 cave, 2750-349 Cascais, Portugal<br>☎ +351 927 054 113<br>https://www.mujo.pt/"}}, {"type": "Feature", "geometry": {"type": "Point", "coordinates": [-9.242888, 38.708316]}, "properties": {"name": "Bitim Grappling Jiu-jítsu", "cat": "martial", "info": "💶 дзвонити · ★ 5 (40) · 9.9 км<br>BJJ грепплінг.<br>📍 Largo Pirâmide 3r, 2795-156 Linda-a-Velha, Portugal<br>☎ +351 926 390 865<br>http://bitimonline.com/"}}, {"type": "Feature", "geometry": {"type": "Point", "coordinates": [-9.326141, 38.703476]}, "properties": {"name": "Dojo Semear Europa", "cat": "martial", "info": "★ 4.9 (12) · 2.8 км<br>спорт-школа. Деталі/ціни — дзвонити або сайт.<br>📍 Praceta João XXI 16, 2775-511 Carcavelos, Portugal<br>☎ +351 963 923 042"}}, {"type": "Feature", "geometry": {"type": "Point", "coordinates": [-9.293797, 38.694169]}, "properties": {"name": "Gracie Barra Paço de Arcos Jiu-Jitsu", "cat": "martial", "info": "💶 безкошт. пробне · ★ 4.9 (116) · 5.3 км<br>BJJ дорослі, окремий рівень «Iniciação», ранок+вечір.<br>📍 R. Cândido dos Reis 1, 2770-025 Paço de Arcos, Portugal<br>☎ +351 919 662 240<br>http://www.graciebarra-pa.com/"}}, {"type": "Feature", "geometry": {"type": "Point", "coordinates": [-9.308524, 38.694882]}, "properties": {"name": "New Generation Team", "cat": "martial", "info": "★ 5 (30) · 4.0 км<br>школа джіу-джитсу. Деталі/ціни — дзвонити або сайт.<br>📍 R. Cmte. Germano Dias 6 7, 2780-199 Oeiras, Portugal<br>☎ +351 932 460 416<br>https://www.instagram.com/ngt_bjj?igsh=b3R1bnhmbXQ5bDJ3"}}, {"type": "Feature", "geometry": {"type": "Point", "coordinates": [-9.382206, 38.705875]}, "properties": {"name": "Latini Jiu Jitsu - Cascais", "cat": "martial", "info": "★ 5 (2) · 2.8 км<br>школа бойових мистецтв. Деталі/ціни — дзвонити або сайт.<br>📍 R. Gen. Manuel Diogo Neto 179B, 2765-334 Estoril, Portugal<br>☎ +351 917 579 448<br>http://www.latinijiujitsu.com/"}}, {"type": "Feature", "geometry": {"type": "Point", "coordinates": [-9.25483, 38.719761]}, "properties": {"name": "Gracie Barra Carnaxide e Queijas", "cat": "martial", "info": "★ 5 (56) · 9.2 км<br>школа бойових мистецтв. Деталі/ціни — дзвонити або сайт.<br>📍 R. Cesário Verde 37G, 2790-495 Queijas, Portugal<br>☎ +351 967 642 217<br>https://graciebarracarnaxide.pt/"}}, {"type": "Feature", "geometry": {"type": "Point", "coordinates": [-9.408658, 38.730928]}, "properties": {"name": "Carlson Gracie Cascais - Brazilian Jiu-Jitsu", "cat": "martial", "info": "💶 безкошт.пробне+промо · ★ 4.8 (44) · 6.4 км<br>BJJ всі віки, чол/жін, англ-friendly (відгуки з Канади).<br>📍 R. Bombeiros Voluntários 13 Lj B-RC, 2645-030 Alcabideche, Portugal<br>☎ +351 936 725 180<br>http://www.carlsongraciecascais.com/"}}, {"type": "Feature", "geometry": {"type": "Point", "coordinates": [-9.422765, 38.699575]}, "properties": {"name": "Five Elements Jiu-Jitsu Cascais", "cat": "martial", "info": "💶 дзвонити · ★ 5 (55) · 6.0 км<br>BJJ Cascais, 5.0★.<br>📍 R. Dom Francisco de Avilez 26 cave, 2750-349 Cascais, Portugal<br>☎ +351 21 484 0350<br>http://www.mujo.pt/"}}, {"type": "Feature", "geometry": {"type": "Point", "coordinates": [-9.309155, 38.694849]}, "properties": {"name": "Templo Oeiras Jiu-jitsu", "cat": "martial", "info": "★ 5 (1) · 4.0 км<br>школа джіу-джитсу. Деталі/ціни — дзвонити або сайт.<br>📍 R. Cmte. Germano Dias 12C, 2780-252 Oeiras, Portugal<br>☎ +351 935 542 600<br>https://www.instagram.com/templo_oeiras?igsh=emRzczNoemRpYzJ6"}}, {"type": "Feature", "geometry": {"type": "Point", "coordinates": [-9.334243, 38.71134]}, "properties": {"name": "Icon Jiu-Jitsu Team/VitaTeam BJJ", "cat": "martial", "info": "💶 дзвонити · ★ 5 (137) · 2.8 км<br>BJJ (грепплінг/rolling у парах). Найвищий рейтинг поблизу (×137). Найближчий грепплінг.<br>📍 Ginasio Vita Team Jiu-Jitsu, Estr. Mata da Torre 341, 2785-798 Carcavelos, Portugal<br>☎ +351 925 626 538<br>http://vitateambjj.com/"}}, {"type": "Feature", "geometry": {"type": "Point", "coordinates": [-9.423258, 38.698671]}, "properties": {"name": "Gracie Barra Cascais Centro | Academia de Jiu Jitsu | Portugal", "cat": "martial", "info": "💶 безкошт. пробне · ★ 4.8 (42) · 6.0 км<br>BJJ «для всіх». Відгук: «почав у 48 — як родина».<br>📍 R. dos Navegantes 368 A, 2750-506 Cascais, Portugal<br>☎ +351 960 301 717<br>https://graciebarra-cascaiscentro.com/"}}, {"type": "Feature", "geometry": {"type": "Point", "coordinates": [-9.367059, 38.765962]}, "properties": {"name": "Gracie Barra Cascais - Jiu-Jitsu Academy", "cat": "martial", "info": "💶 безкошт. пробне · ★ 5 (123) · 8.3 км<br>BJJ «для всіх». Відгук: «почав у 48 — як родина».<br>📍 R. das Sesmarias 7, 2710-694 Sintra, Portugal<br>☎ +351 967 460 819<br>http://www.graciebarra-cascais.com/"}}, {"type": "Feature", "geometry": {"type": "Point", "coordinates": [-9.298748, 38.692784]}, "properties": {"name": "Ginásios Clube Desportivo de Paço de Arcos (CDPA)", "cat": "martial", "info": "★ 3.9 (7) · 4.9 км<br>спортзал. Деталі/ціни — дзвонити або сайт.<br>📍 Av. Eng. Bonneville Franco 12, 2770-015 Oeiras, Portugal<br>☎ +351 911 554 384<br>https://www.cdpa.pt/"}}, {"type": "Feature", "geometry": {"type": "Point", "coordinates": [-9.449444, 38.734003]}, "properties": {"name": "Krav Maga FEKM Cascais", "cat": "martial", "info": "★ 5 (7) · 9.5 км<br>Self defense school. Деталі/ціни — дзвонити або сайт.<br>📍 Av. Charneca, 2750-530 Cascais, Portugal<br>☎ +351 918 522 293<br>http://www.cpkm.pt/"}}, {"type": "Feature", "geometry": {"type": "Point", "coordinates": [-9.352268, 38.694243]}, "properties": {"name": "Fight like a Girl", "cat": "martial", "info": "0.3 км<br>школа бойових мистецтв. Деталі/ціни — дзвонити або сайт.<br>📍 R. Brito Pais, 2775-172 Parede, Portugal<br>☎ +351 916 033 940<br>https://www.instagram.com/defesapessoal.fightlikeagirl/"}}, {"type": "Feature", "geometry": {"type": "Point", "coordinates": [-9.365382, 38.701657]}, "properties": {"name": "Murtalense Lino Team", "cat": "martial", "info": "★ 5 (3) · 1.4 км<br>Kickboxing school. Деталі/ціни — дзвонити або сайт.<br>📍 Largo João dos Santos 80, 2775-102 Parede, Portugal<br>☎ +351 916 488 243<br>https://www.instagram.com/murtalenselinoteam/"}}, {"type": "Feature", "geometry": {"type": "Point", "coordinates": [-9.423193, 38.708731]}, "properties": {"name": "ADN Artes Marciais", "cat": "martial", "info": "💶 дзвонити · ★ 4.9 (46) · 6.2 км<br>BJJ/бойові Cascais.<br>📍 R. São José 246, 2750-134 Cascais, Portugal<br>☎ +351 919 918 917<br>https://www.adnartesmarciais.com/"}}, {"type": "Feature", "geometry": {"type": "Point", "coordinates": [-9.353247, 38.693771]}, "properties": {"name": "Aikido Parede", "cat": "martial", "info": "★ 3.7 (3) · 0.2 км<br>Aikido school. Деталі/ціни — дзвонити або сайт.<br>📍 Av. Bombeiros Voluntários 147, 2775-169 Parede, Portugal<br>http://www.ubu.pt/"}}, {"type": "Feature", "geometry": {"type": "Point", "coordinates": [-9.348078, 38.713816]}, "properties": {"name": "Buyukan - Bujinkan Tsuru Dojo Parede", "cat": "martial", "info": "★ 5 (5) · 2.5 км<br>школа бойових мистецтв. Деталі/ціни — дзвонити або сайт.<br>📍 Pavilhão Tomé Serafim dos Santos, R. do Mercado 156b, Tires, 2785-629 São Domingos de Rana, Portugal<br>☎ +351 938 222 182<br>https://bujinkan.pt/"}}, {"type": "Feature", "geometry": {"type": "Point", "coordinates": [-9.34728, 38.691646]}, "properties": {"name": "Top - Artes Marciais", "cat": "martial", "info": "★ 5 (19) · 0.6 км<br>школа бойових мистецтв. Деталі/ціни — дзвонити або сайт.<br>📍 R. João de Barros 141, 2775-208 Parede, Portugal<br>☎ +351 932 937 094<br>http://top-artesmarciais.com/"}}, {"type": "Feature", "geometry": {"type": "Point", "coordinates": [-9.301346, 38.715345]}, "properties": {"name": "Brooklyn Fitboxing Porto salvo", "cat": "martial", "info": "★ 4.9 (30) · 5.3 км<br>спортзал. Деталі/ціни — дзвонити або сайт.<br>📍 Estrada de Paço de Arcos 135, 2740-287 Porto Salvo, Portugal<br>☎ +351 934 175 777<br>https://www.brooklynfitboxing.com/public/es/es-es/club/PORTO-SALVO"}}, {"type": "Feature", "geometry": {"type": "Point", "coordinates": [-9.149857, 38.735719]}, "properties": {"name": "Academia Kolmachine", "cat": "martial", "info": "💶 дзвонити (ціни старі) · ★ 4.7 (149) · 18.4 км<br>Муай-тай, євро-чемпіони, ×149, але далеко (~18км).<br>📍 Av. João Crisóstomo 49C, 1050-026 Lisboa, Portugal<br>☎ +351 21 162 1843<br>https://www.kolmachine.com/"}}, {"type": "Feature", "geometry": {"type": "Point", "coordinates": [-9.359919, 38.691739]}, "properties": {"name": "Gracie Barra Parede", "cat": "martial", "info": "★ 5 (30) · 0.5 км<br>школа бойових мистецтв. Деталі/ціни — дзвонити або сайт.<br>📍 R. José Carlos da Maia 89A, 2775-214 Parede, Portugal<br>☎ +351 914 218 840<br>https://graciebarraparede.com/"}}, {"type": "Feature", "geometry": {"type": "Point", "coordinates": [-9.422715, 38.699521]}, "properties": {"name": "Qigong Yiquan Cascais", "cat": "martial", "info": "6.0 км<br>школа бойових мистецтв. Деталі/ціни — дзвонити або сайт.<br>📍 R. Dom Francisco de Avilez, 2750-642 Cascais, Portugal<br>☎ +33 7 45 11 40 25<br>http://yiquanway.com/"}}, {"type": "Feature", "geometry": {"type": "Point", "coordinates": [-9.419919, 38.710091]}, "properties": {"name": "Centro Karate Kosuta - Fontainhas Cascais", "cat": "martial", "info": "★ 4.9 (7) · 6.0 км<br>спорт-школа. Деталі/ціни — дзвонити або сайт.<br>📍 R. Catarina Eufémia 167, 2750-318 Cascais, Portugal<br>☎ +351 912 687 240<br>https://centrokaratekosuta.com/"}}, {"type": "Feature", "geometry": {"type": "Point", "coordinates": [-9.303348, 38.768955]}, "properties": {"name": "Gfteam Sintra", "cat": "martial", "info": "💶 дзвонити · ★ 5 (92) · 9.6 км<br>Сильний BJJ, Sintra.<br>📍 R. Dona Maria II 39C, 2735-296 Agualva-Cacém, Portugal<br>☎ +351 927 744 614"}}, {"type": "Feature", "geometry": {"type": "Point", "coordinates": [-9.3936, 38.7925]}, "properties": {"name": "Parque das Merendas (Сінтра)", "cat": "nature", "info": "Парк · 💶 безкоштовно · 11.7 км<br>Лісовий пікніковий парк біля Vila Sassetti: 500+ дерев, кам'яні столи, стежки з видом на Сінтру аж до Замку маврів і Пена (можна дійти до видового майданчика й повернутись, не заходячи в палаци). Без ігрового обладнання — радше прогулянка. Паркування в центрі Сінтри у вихідні складне.<br>📍 Estrada da Pena 24, 2710-609 Sintra, Portugal<br>https://ambiente.sintra.pt/parques-e-jardins/parques-jardins/parque-das-merendas"}}]}