{"type": "FeatureCollection", "features": [{"type": "Feature", "geometry": {"type": "Point", "coordinates": [-9.3442396, 38.6866792]}, "properties": {"name": "Creche ABLA (Luso-Alemã)", "cat": "creche", "info": "IPSS · Carcavelos · Creche Feliz=безкошт (нар.≥09.2021) · берçário+creche+pré | Google ★4,7 (162)", "rating_g": "4.7 (162)"}}, {"type": "Feature", "geometry": {"type": "Point", "coordinates": [-9.3346482, 38.6903625]}, "properties": {"name": "Infantário Bebé Sol", "cat": "creche", "info": "Приватна ~€450-900 · Carcavelos · Creche Feliz якщо aderente | Google: рейтингу нема ніде (2 проходи), заклад працює", "rating_g": "нема (працює)"}}, {"type": "Feature", "geometry": {"type": "Point", "coordinates": [-9.3386972, 38.6905296]}, "properties": {"name": "Externato O Cantinho de Carcavelos", "cat": "creche", "info": "Приватна ~€450-900 · Carcavelos | Google ★4,7 (25)", "rating_g": "4.7 (25)"}}, {"type": "Feature", "geometry": {"type": "Point", "coordinates": [-9.3573921, 38.7021334]}, "properties": {"name": "Creche Pipoca Azul", "cat": "creche", "info": "Приватна ~€450-900 · Madorna, Parede | Google: рейтингу нема ніде (2 проходи), заклад працює", "rating_g": "нема (працює)"}}, {"type": "Feature", "geometry": {"type": "Point", "coordinates": [-9.356651, 38.6888459]}, "properties": {"name": "O Bicharoco", "cat": "creche", "info": "Приватна ~€450-900 · Parede | Google: рейтингу нема ніде (2 проходи), заклад працює", "rating_g": "нема (працює)"}}, {"type": "Feature", "geometry": {"type": "Point", "coordinates": [-9.3254951, 38.7055066]}, "properties": {"name": "Creche do Arneiro (SCM Cascais)", "cat": "creche", "info": "IPSS · Arneiro/Carcavelos · Creche Feliz=безкошт · 4міс-3р | Google: рейтингу нема ніде (2 проходи), заклад працює", "rating_g": "нема (працює)"}}, {"type": "Feature", "geometry": {"type": "Point", "coordinates": [-9.3554814, 38.6869544]}, "properties": {"name": "Centro Ed. Infantil da Parede (тепер ABLA Parede)", "cat": "creche", "info": "IPSS · Parede (R. Cândido dos Reis 206) · Creche Feliz=безкошт · оператор тепер ABLA (не SCML — сайт cascais.pt застарілий) | Google ★4,6 (13)", "rating_g": "4.6 (13)"}}, {"type": "Feature", "geometry": {"type": "Point", "coordinates": [-9.3622094, 38.7025938]}, "properties": {"name": "Cooperativa Éramos Um", "cat": "creche", "info": "Кооператив ~€450-900 · Murtal, Parede | Google: сторінка є, 0 відгуків", "rating_g": "0 відгуків"}}, {"type": "Feature", "geometry": {"type": "Point", "coordinates": [-9.3271683, 38.6814163]}, "properties": {"name": "Creche Os Gonçalinhos", "cat": "creche", "info": "Приватна ~€450-900 · межа Parede/Carcavelos | Google ★4,0 (4)", "rating_g": "4.0 (4)"}}, {"type": "Feature", "geometry": {"type": "Point", "coordinates": [-9.3566622, 38.6977666]}, "properties": {"name": "Infantário A Cegonha da Parede", "cat": "creche", "info": "Приватна ~€450-900 · Parede | Google ★5,0 (1)", "rating_g": "5.0 (1)"}}, {"type": "Feature", "geometry": {"type": "Point", "coordinates": [-9.3432126, 38.6828619]}, "properties": {"name": "O Botãozinho (FCCF)", "cat": "creche", "info": "Фонд ~€450-900 · Junqueiro, Carcavelos | Google ★3,7 (10)", "rating_g": "3.7 (10)"}}, {"type": "Feature", "geometry": {"type": "Point", "coordinates": [-9.3553741, 38.6902915]}, "properties": {"name": "Jardim Infantil Branca de Neve", "cat": "creche", "info": "Приватна ~€450-900 · Parede | Google ★4,9 (9)", "rating_g": "4.9 (9)"}}, {"type": "Feature", "geometry": {"type": "Point", "coordinates": [-9.3370104, 38.6918895]}, "properties": {"name": "Traquinauta", "cat": "creche", "info": "Приватна з bolsas 70/125/180€ (за доходом) · Carcavelos | ⚠️ЗАКРИТО (Google) — раніше ★5,0", "rating_g": "ЗАКРИТО"}}, {"type": "Feature", "geometry": {"type": "Point", "coordinates": [-9.3495815, 38.6873827]}, "properties": {"name": "Colégio da Bafureira", "cat": "creche", "info": "Приватна ~€450-900 · Parede | Google: сторінка є, 0 відгуків", "rating_g": "0 відгуків"}}, {"type": "Feature", "geometry": {"type": "Point", "coordinates": [-9.3265193, 38.6851875]}, "properties": {"name": "Externato Jardim dos Lombos", "cat": "creche", "info": "Приватна ~€450-900 · Lombos, Carcavelos | Google: сторінка є, 0 відгуків", "rating_g": "0 відгуків"}}, {"type": "Feature", "geometry": {"type": "Point", "coordinates": [-9.3333467, 38.6900544]}, "properties": {"name": "A Escolinha da Aldeia", "cat": "creche", "info": "Приватна ~€450-900 · Carcavelos | ⚠️ЗАКРИТО (Google) — раніше ★4,3", "rating_g": "ЗАКРИТО"}}, {"type": "Feature", "geometry": {"type": "Point", "coordinates": [-9.3555559, 38.6950256]}, "properties": {"name": "Associação Escola 31 de Janeiro", "cat": "creche", "info": "Кооператив ~€450-900 · Parede | Google: сторінка є, 0 відгуків", "rating_g": "0 відгуків"}}, {"type": "Feature", "geometry": {"type": "Point", "coordinates": [-9.34132, 38.7035094]}, "properties": {"name": "Creche São Domingos de Rana (CSPSDR)", "cat": "creche", "info": "IPSS · SDR · Creche Feliz=безкошт · 93 місця acordo · 3міс-3р | Google ★4,5 (19)", "rating_g": "4.5 (19)"}}, {"type": "Feature", "geometry": {"type": "Point", "coordinates": [-9.3245777, 38.7291272]}, "properties": {"name": "AJEC (Academia)", "cat": "creche", "info": "IPSS · Abóboda/SDR · Creche Feliz=безкошт · берçário+creche+pré | Google ★5,0 (9)", "rating_g": "5.0 (9)"}}, {"type": "Feature", "geometry": {"type": "Point", "coordinates": [-9.3344728, 38.7161462]}, "properties": {"name": "Creche Geração de Piratas", "cat": "creche", "info": "Приватна ~€450-900 · SDR · берçário+creche | Google ★4,4 (18)", "rating_g": "4.4 (18)"}}, {"type": "Feature", "geometry": {"type": "Point", "coordinates": [-9.3340727, 38.7270469]}, "properties": {"name": "Creche Abóboda (SCM Cascais)", "cat": "creche", "info": "IPSS · Abóboda · Creche Feliz=безкошт | Google: рейтингу нема ніде (2 проходи), заклад працює", "rating_g": "нема (працює)"}}, {"type": "Feature", "geometry": {"type": "Point", "coordinates": [-9.4187454, 38.704414]}, "properties": {"name": "A Chupeta", "cat": "creche", "info": "Приватна ~€450-900 · Cascais | Google ★4,1 (43)", "rating_g": "4.1 (43)"}}, {"type": "Feature", "geometry": {"type": "Point", "coordinates": [-9.4348991, 38.7113069]}, "properties": {"name": "Creche da Pampilheira (SCM Cascais)", "cat": "creche", "info": "IPSS · Pampilheira/Cascais · Creche Feliz=безкошт | Google ★5,0 (5)", "rating_g": "5.0 (5)"}}, {"type": "Feature", "geometry": {"type": "Point", "coordinates": [-9.4177052, 38.7016182]}, "properties": {"name": "Creche São José (SCM Cascais)", "cat": "creche", "info": "IPSS · Cascais · Creche Feliz=безкошт | Google: сторінка є, 0 відгуків", "rating_g": "0 відгуків"}}, {"type": "Feature", "geometry": {"type": "Point", "coordinates": [-9.4329886, 38.7108959]}, "properties": {"name": "Berçário O Fraldinhas (CNAF)", "cat": "creche", "info": "IPSS · Pampilheira/Cascais · Creche Feliz=безкошт | Google: сторінка є, 0 відгуків", "rating_g": "0 відгуків"}}, {"type": "Feature", "geometry": {"type": "Point", "coordinates": [-9.4159805, 38.7084621]}, "properties": {"name": "St. John's School (creche)", "cat": "creche", "info": "Міжнародна, висока ~€800-1500+ · НЕ Creche Feliz | Google ★4,7 (50)", "rating_g": "4.7 (50)"}}, {"type": "Feature", "geometry": {"type": "Point", "coordinates": [-9.4385403, 38.7104115]}, "properties": {"name": "King's College (creche/pré)", "cat": "creche", "info": "Міжнародна, висока ~€800-1500+ · НЕ Creche Feliz | Google: сторінка є, 0 відгуків", "rating_g": "0 відгуків"}}, {"type": "Feature", "geometry": {"type": "Point", "coordinates": [-9.3901645, 38.7459156]}, "properties": {"name": "Centro Infantil do Linhó (SCM Cascais)", "cat": "creche", "info": "IPSS · Linhó/Alcabideche (вглиб) · Creche Feliz=безкошт | Google: рейтингу нема ніде (2 проходи), заклад працює", "rating_g": "нема (працює)"}}, {"type": "Feature", "geometry": {"type": "Point", "coordinates": [-9.2925007, 38.7035748]}, "properties": {"name": "Creche e JI Santa Ana (SCM Oeiras)", "cat": "creche", "info": "IPSS · Paço de Arcos · Creche Feliz=безкошт | Google ★5,0 (3)", "rating_g": "5.0 (3)"}}, {"type": "Feature", "geometry": {"type": "Point", "coordinates": [-9.2949492, 38.6955556]}, "properties": {"name": "Casa da Criança Rainha Santa Isabel", "cat": "creche", "info": "IPSS · Paço de Arcos · Creche Feliz=безкошт | Google ★4,6 (17)", "rating_g": "4.6 (17)"}}, {"type": "Feature", "geometry": {"type": "Point", "coordinates": [-9.2904773, 38.6967576]}, "properties": {"name": "Infantário Popular de Paço de Arcos (APPA)", "cat": "creche", "info": "IPSS · Paço de Arcos · Creche Feliz=безкошт | Google ★4,6 (9)", "rating_g": "4.6 (9)"}}, {"type": "Feature", "geometry": {"type": "Point", "coordinates": [-9.2910855, 38.6998297]}, "properties": {"name": "Escola do Arco (Ajuda de Mãe)", "cat": "creche", "info": "IPSS · Paço de Arcos · Creche Feliz=безкошт | Google ★4,4 (5)", "rating_g": "4.4 (5)"}}, {"type": "Feature", "geometry": {"type": "Point", "coordinates": [-9.2718915, 38.7092816]}, "properties": {"name": "Creche/JI Nª Sra do Acolhimento", "cat": "creche", "info": "IPSS · Laveiras/Caxias · Creche Feliz=безкошт | Google ★4,8 (4)", "rating_g": "4.8 (4)"}}, {"type": "Feature", "geometry": {"type": "Point", "coordinates": [-9.275508, 38.7066612]}, "properties": {"name": "Externato Nª Sra das Dores", "cat": "creche", "info": "IPSS · Laveiras/Caxias · Creche Feliz=безкошт | Google: сторінка є, 0 відгуків", "rating_g": "0 відгуків"}}, {"type": "Feature", "geometry": {"type": "Point", "coordinates": [-9.4205507, 38.7119375]}, "properties": {"name": "Creche Teodoro dos Santos (SCM Cascais)", "cat": "creche", "rating_g": "5.0 (3)", "info": "IPSS · Bairro Marechal Carmona/Largo Cidade do Sal, Cascais (повна назва: Marcelina Teodoro dos Santos) · Creche Feliz=безкошт · ⚠️без номера будинку в джерелах | Google ★5,0 (3)"}}, {"type": "Feature", "geometry": {"type": "Point", "coordinates": [-9.327265, 38.707307]}, "properties": {"name": "Colégio Avião de Papel (ex-Brinca e Educa II)", "cat": "creche", "rating_g": "5.0 (1)", "info": "Приватна ~€450-900 · Arneiro/Carcavelos (R. Rio Lis 1) · перейменовано з Brinca e Educa II (та сама будівля) | Google ★5,0 (1)"}}]}