{"type": "FeatureCollection", "features": [{"type": "Feature", "geometry": {"type": "Point", "coordinates": [-9.1736467, 38.7701373]}, "properties": {"name": "AIMA Lisboa — Centro de Atendimento Especial (Zona 5)", "cat": "servico", "info": "Головне відділення AIMA для біометрії/першої подачі й отримання картки ВНЖ. Величезні черги — до ~200 людей, 3,5–4,75 год очікування; приходити рано з водою й перекусом.<br>📍 Alameda Mahatma Gandhi 1600-500, Lisboa<br><span style='opacity:.6'>18.0 км від дому</span>"}}, {"type": "Feature", "geometry": {"type": "Point", "coordinates": [-9.1356032, 38.7248996]}, "properties": {"name": "AIMA Lisboa II — Anjos", "cat": "servico", "info": "Лише інформаційне відділення AIMA (жива черга), без вирішення справи по суті. Контакти для «помилки друку» картки й повторної біометрії: loja.lisboa1@ і loja.lisboa2@aima.gov.pt.<br>📍 Rua Álvaro Coutinho, n.º 14 a 16, 1150-025 Lisboa<br><span style='opacity:.6'>19.3 км від дому</span>"}}, {"type": "Feature", "geometry": {"type": "Point", "coordinates": [-9.1496819, 38.72923]}, "properties": {"name": "Loja AIMA I", "cat": "servico", "info": "Тут можна забрати картку ВНЖ і оплатити збір готівкою (в інших відділеннях AIMA — лише картка/Apple Pay).<br>📍 Av. António Augusto de Aguiar 20, Lisboa<br><span style='opacity:.6'>18.2 км від дому</span>"}}, {"type": "Feature", "geometry": {"type": "Point", "coordinates": [-9.3176787, 38.6838031]}, "properties": {"name": "Conservatória do Registo Civil de Oeiras", "cat": "servico", "info": "РАГС сусіднього концелью Оейраш, тел. +351 21 454 4770 — те саме реєстраційне бюро для свідоцтв про народження й громадянства дітей, народжених у Португалії.<br>📍 Av. Dom João I 16, 2780-051 Oeiras<br><span style='opacity:.6'>3.1 км від дому</span>"}}, {"type": "Feature", "geometry": {"type": "Point", "coordinates": [-9.34399, 38.793577]}, "properties": {"name": "Primadent (dra. Irina)", "cat": "health", "info": "Стоматологія, власниця українка, гуманні ціни, дитячий лікар; працює по страховці з поданням на відшкодування.<br>📍 Mem Martins<br><span style='opacity:.6'>11.6 км від дому</span>"}}, {"type": "Feature", "geometry": {"type": "Point", "coordinates": [-9.0953729, 38.7638712]}, "properties": {"name": "Santa Madalena", "cat": "health", "info": "Стоматологія: чистка до 90€ з фіксованою ціною за план, канали; José Eduardo Costa — англомовний, високий рівень.<br>📍 Parque das Nações, Lisboa<br><span style='opacity:.6'>23.8 км від дому</span>"}}, {"type": "Feature", "geometry": {"type": "Point", "coordinates": [-9.2294545, 38.6983839]}, "properties": {"name": "BELDENT / Le Art Clinic", "cat": "health", "info": "Стоматологія повного циклу: седація, ортодонтія, імплантація; засновники білоруси. TG @BELDENT_admin.<br>📍 Algés<br><span style='opacity:.6'>10.8 км від дому</span>"}}, {"type": "Feature", "geometry": {"type": "Point", "coordinates": [-9.1429887, 38.7057202]}, "properties": {"name": "The Practice", "cat": "health", "info": "Клініка ВНЧС/гнатології, шини. Email cv@thepractice.com.pt, WhatsApp +351 915 072 302.<br>📍 центр Лісабона<br><span style='opacity:.6'>18.3 км від дому</span>"}}, {"type": "Feature", "geometry": {"type": "Point", "coordinates": [-9.1485642, 38.72812]}, "properties": {"name": "Михаил Малько", "cat": "health", "info": "Стоматолог: тотальні реабілітації, імплантація, гнатологія, вінири. Тел. +351 920152673, Cédula 9223.<br>📍 Av. António Augusto de Aguiar 148, Lisboa<br><span style='opacity:.6'>18.3 км від дому</span>"}}, {"type": "Feature", "geometry": {"type": "Point", "coordinates": [-9.1623286, 38.7288898]}, "properties": {"name": "Oleg Gavrilko", "cat": "health", "info": "Стоматолог; у вихідних джерелах є негативні відгуки — перевіряти перед візитом.<br>📍 R. de Campolide 94, Lisboa<br><span style='opacity:.6'>17.1 км від дому</span>"}}, {"type": "Feature", "geometry": {"type": "Point", "coordinates": [-9.1686165, 38.7491861]}, "properties": {"name": "Dentica e MesoEstética", "cat": "health", "info": "Стоматологія для дорослих і дітей + косметологія, EN/PT/UA/RU/PL.<br>📍 R. Manuel da Fonseca 7, Lisboa<br><span style='opacity:.6'>17.3 км від дому</span>"}}, {"type": "Feature", "geometry": {"type": "Point", "coordinates": [-9.1452467, 38.7347193]}, "properties": {"name": "Clínica Hugo Madeira", "cat": "health", "info": "Стоматологія; дитячий прийом веде Dra Maria Joana Castro.<br>📍 Saldanha, Lisboa<br><span style='opacity:.6'>18.7 км від дому</span>"}}, {"type": "Feature", "geometry": {"type": "Point", "coordinates": [-9.1576301, 38.6831302]}, "properties": {"name": "irinabelodentalclinic", "cat": "health", "info": "Стоматологія в Алмаді, PT/UA/RU.<br>📍 Алмада<br><span style='opacity:.6'>17.0 км від дому</span>"}}, {"type": "Feature", "geometry": {"type": "Point", "coordinates": [-9.1792617, 38.7904338]}, "properties": {"name": "Марія Кривда", "cat": "health", "info": "Хірург-імплантолог; імплант ~1500€ проти ~3900€ у інших.<br>📍 Одівелаш<br><span style='opacity:.6'>18.8 км від дому</span>"}}, {"type": "Feature", "geometry": {"type": "Point", "coordinates": [-9.1792617, 38.7904338]}, "properties": {"name": "Dental UA", "cat": "health", "info": "Стоматологічна клініка, відгуки різні.<br>📍 Одівелаш<br><span style='opacity:.6'>18.8 км від дому</span>"}}, {"type": "Feature", "geometry": {"type": "Point", "coordinates": [-9.1876918, 38.8115135]}, "properties": {"name": "Clínica Dermalife", "cat": "health", "info": "Дерматологія, гінекологія, ортопедія, ЛОР — всі лікарі укр/рос; цифровий дерматоскоп, консультація ~70€. WhatsApp 969 655 503.<br>📍 R. Fernando Farinha 14 loja 2c, Ramada<br><span style='opacity:.6'>19.7 км від дому</span>"}}, {"type": "Feature", "geometry": {"type": "Point", "coordinates": [-9.1576301, 38.6831302]}, "properties": {"name": "Diogo Cabral (офтальмолог)", "cat": "health", "info": "Офтальмолог в Алмаді.<br>📍 Almada<br><span style='opacity:.6'>17.0 км від дому</span>"}}, {"type": "Feature", "geometry": {"type": "Point", "coordinates": [-9.1620743, 38.6590302]}, "properties": {"name": "Александр Лобанов (офтальмолог)", "cat": "health", "info": "Офтальмолог; приймає також в Hospital Garcia da Orta.<br>📍 ÓPTICA CÂNDIDO, R. Ary dos Santos 12-A, Almada<br><span style='opacity:.6'>16.9 км від дому</span>"}}, {"type": "Feature", "geometry": {"type": "Point", "coordinates": [-9.3522371, 38.8355446]}, "properties": {"name": "Дмитро Привалов (уролог)", "cat": "health", "info": "Уролог/андролог у Сінтрі + онлайн, стаж 20 років. TG @Dmitriy_Privalov.<br>📍 Sintra<br><span style='opacity:.6'>16.2 км від дому</span>"}}, {"type": "Feature", "geometry": {"type": "Point", "coordinates": [-9.0966101, 38.7754328]}, "properties": {"name": "Alvométodo", "cat": "health", "info": "Клініка: сімейний лікар, уролог, нейрофункціональна електроакупунктура (спина/шия), детокс-крапельниці, меддекларації. TG @VadimUro.<br>📍 Pátio das Fragatas 5, 1990-607 Lisboa<br><span style='opacity:.6'>24.2 км від дому</span>"}}, {"type": "Feature", "geometry": {"type": "Point", "coordinates": [-9.2513201, 38.6997693]}, "properties": {"name": "Ana Straistari (остеопат)", "cat": "health", "info": "Остеопат/акупунктурист (C-006579) у Cruz Quebrada — дуже близько до Кашкайшу/Ошираша. Тел 926342747.<br>📍 Cruz Quebrada<br><span style='opacity:.6'>8.9 км від дому</span>"}}, {"type": "Feature", "geometry": {"type": "Point", "coordinates": [-9.0943516, 38.7580017]}, "properties": {"name": "Seena Centre (Maxym Steshenko)", "cat": "health", "info": "Кінезіолог/остеопат, ударно-хвильова терапія, EN/PT/RU.<br>📍 R. das Musas 13<br><span style='opacity:.6'>23.7 км від дому</span>"}}, {"type": "Feature", "geometry": {"type": "Point", "coordinates": [-9.2294545, 38.6983839]}, "properties": {"name": "Клініка mila_platitsa", "cat": "health", "info": "Масаж, тейпування, акупунктура, краніосакральна терапія, корекція постави (Шрот/SEAS). Тел +351 911 017 367.<br>📍 Algés<br><span style='opacity:.6'>10.8 км від дому</span>"}}, {"type": "Feature", "geometry": {"type": "Point", "coordinates": [-9.3305276, 38.7256377]}, "properties": {"name": "Complexo Desportivo Municipal da Abóboda (CDMA)", "cat": "leisure", "info": "Муніципальний спорткомплекс з басейном і залом, ~10 хв від Parede. Місячно басейн+зал €47,50 дорослий/€42,50 до 22р; знижки −25%/−35% для 3-ї/4-ї особи родини, що записана разом.<br>📍 R. Mouzinho de Albuquerque 186, S. Domingos de Rana/Abóboda<br><span style='opacity:.6'>4.5 км від дому</span>"}}, {"type": "Feature", "geometry": {"type": "Point", "coordinates": [-9.3333299, 38.6797023]}, "properties": {"name": "Sky Beach Bar, Casa da Praia", "cat": "leisure", "info": "Пляжний бар, де щоп'ятниці відбувається казуальний англомовний волейбольний івент «BEACH(Fri)DAY» від групи Sports & Social Lisbon.<br>📍 Av. Marginal, Carcavelos<br><span style='opacity:.6'>2.0 км від дому</span>"}}, {"type": "Feature", "geometry": {"type": "Point", "coordinates": [-9.3177039, 38.6761866]}, "properties": {"name": "BORK You (Marina de Oeiras)", "cat": "leisure", "info": "Оренда каяків/SUP без потреби прав, підходить парі чи родині з дітьми. €30-40/особа за тур, або членство €35/міс. Працює цілий рік, щодня 09:00-18:00.<br>📍 Marina de Oeiras<br><span style='opacity:.6'>3.4 км від дому</span>"}}, {"type": "Feature", "geometry": {"type": "Point", "coordinates": [-9.4204495, 38.6968919]}, "properties": {"name": "Surfnpaddle", "cat": "leisure", "info": "Перша SUP-школа Кашкайша (з 2010), оренда дошки €35-80. Варіант «поплавати без прав» для родини.<br>📍 Cascais<br><span style='opacity:.6'>5.9 км від дому</span>"}}, {"type": "Feature", "geometry": {"type": "Point", "coordinates": [-9.3250003, 38.8570946]}, "properties": {"name": "Museu do Ar (Pero Pinheiro, Sintra)", "cat": "leisure", "info": "Авіамузей. Щоперша неділя місяця тут авто-шоу Sintra Clássicos 9:30-12:30, і в цей день вхід у сам музей безкоштовний увесь день.<br>📍 Pero Pinheiro, Sintra<br><span style='opacity:.6'>18.7 км від дому</span>"}}, {"type": "Feature", "geometry": {"type": "Point", "coordinates": [-9.4208252, 38.7014318]}, "properties": {"name": "Biblioteca Municipal de Cascais (Casa da Horta)", "cat": "leisure", "info": "Муніципальна бібліотека. Тут проходять «Oficina de Danças Portuguesas» (пт 18:30-20:00, безкоштовно) і щомісячні «Contos na Horta» для дітей ~4-10р (субота 15:30).<br>📍 Casa da Horta, Cascais<br><span style='opacity:.6'>6.1 км від дому</span>"}}, {"type": "Feature", "geometry": {"type": "Point", "coordinates": [-9.3417434, 38.7015666]}, "properties": {"name": "Biblioteca de S. Domingos de Rana", "cat": "leisure", "info": "Тут щомісяця «Contos à Solta ДЛЯ НЕМОВЛЯТ» (суботи 10:30) — добре під дворічну дитину, і окремо «Contos à Solta» для 4-10р (15:30).<br>📍 S. Domingos de Rana<br><span style='opacity:.6'>1.7 км від дому</span>"}}, {"type": "Feature", "geometry": {"type": "Point", "coordinates": [-9.3417434, 38.7015666]}, "properties": {"name": "Borboletário (S. Domingos de Rana)", "cat": "leisure", "info": "Метелики: програми «Cientista por um dia» і «Vida secreta das Borboletas», €5, для 4-12 років.<br>📍 S. Domingos de Rana<br><span style='opacity:.6'>1.7 км від дому</span>"}}, {"type": "Feature", "geometry": {"type": "Point", "coordinates": [-9.3379153, 38.7136117]}, "properties": {"name": "ArtHome Cascais", "cat": "leisure", "info": "Українська арт-школа проводить безкоштовні дні відкритих дверей із дитячими майстер-класами (окремо від дорослих курсів акторки в тій же школі, вже занесених на карту).<br>📍 Rua da Palmeira 1, Cascais<br><span style='opacity:.6'>3.0 км від дому</span>"}}, {"type": "Feature", "geometry": {"type": "Point", "coordinates": [-9.2984466, 38.7665222]}, "properties": {"name": "Altissimo (скелелазіння)", "cat": "leisure", "info": "Групові уроки скелелазіння для дітей 7+ років, €25/особу.<br>📍 Agualva-Cacém<br><span style='opacity:.6'>9.8 км від дому</span>"}}, {"type": "Feature", "geometry": {"type": "Point", "coordinates": [-9.3123076, 38.6925777]}, "properties": {"name": "Estação Agronómica Nacional (Oeiras)", "cat": "leisure", "info": "Тут проходило безкоштовне дитяче свято в кінному клубі з безкоштовним паркуванням (1 червня, разова подія — перевірити чи регулярна).<br>📍 Oeiras<br><span style='opacity:.6'>3.5 км від дому</span>"}}, {"type": "Feature", "geometry": {"type": "Point", "coordinates": [-9.1411539, 38.7106621]}, "properties": {"name": "Livraria Bertrand (Chiado)", "cat": "leisure", "info": "Найстаріша діюча книгарня світу (з 1732, рекорд Гіннеса), 7 залів і літературне кафе, вхід безкоштовний, 9:00-22:00 — приємне місце для родинної прогулянки.<br>📍 Rua Garrett 73, Chiado, Lisboa<br><span style='opacity:.6'>18.5 км від дому</span>"}}, {"type": "Feature", "geometry": {"type": "Point", "coordinates": [-9.1393431, 38.7137564]}, "properties": {"name": "Mercado de Natal do Rossio", "cat": "leisure", "info": "Різдвяний ярмарок 14 листопада — 21 грудня: сувеніри, їжа, безкоштовний різдвяний потяг для дітей, щоденна хода о 17:00.<br>📍 Praça do Rossio, Lisboa<br><span style='opacity:.6'>18.7 км від дому</span>"}}, {"type": "Feature", "geometry": {"type": "Point", "coordinates": [-9.3713821, 38.7599847]}, "properties": {"name": "A Delícia da Beloura", "cat": "leisure", "info": "Найближчий класичний португальський шведський стіл, ~15 хв від Каркавелуша. Обід €12,90 з напоєм, вечеря €23. Вегетаріанське: салати, овочеві гарніри, суп (веган не обіцяють).<br>📍 Av. Pedro Álvares Cabral 230, Quinta da Beloura/Linhó, Sintra<br><span style='opacity:.6'>8.0 км від дому</span>"}}, {"type": "Feature", "geometry": {"type": "Point", "coordinates": [-9.3754288, 38.8013977]}, "properties": {"name": "Wok World Sintra", "cat": "leisure", "info": "Азійський буфет, найдешевший для дітей: дорослий €12,95 обід буд./€15,95 вечеря, дитина 4-9р €7,95. Вегетаріанське: овочевий wok, локшина, темпура з овочами, овочеві суші.<br>📍 Av. Movimento das Forças Armadas 128-A, Sintra<br><span style='opacity:.6'>12.5 км від дому</span>"}}, {"type": "Feature", "geometry": {"type": "Point", "coordinates": [-9.2784391, 38.7604986]}, "properties": {"name": "Go Chef Massamá", "cat": "leisure", "info": "Найбільший буфетний ресторан у Португалії. Обід €14,95/€7,95 (дитина 4-9р). Вегетаріанські позиції є (салат-бар, овочевий wok, овочеві суші), але деталі не підтверджені.<br>📍 Av. Salgueiro Maia 53, Massamá Norte, Sintra<br><span style='opacity:.6'>10.2 км від дому</span>"}}, {"type": "Feature", "geometry": {"type": "Point", "coordinates": [-9.3306717, 38.8480982]}, "properties": {"name": "Samurai Sintra", "cat": "leisure", "info": "Азійський буфет з напоями в ціні. Обід €15,90 дорослий/€8,90 дитина від 4р, діти до 4р безкоштовно. Салати, суші, гриль, десерти.<br>📍 Av. Aviação Portuguesa 63, Sintra<br><span style='opacity:.6'>17.7 км від дому</span>"}}, {"type": "Feature", "geometry": {"type": "Point", "coordinates": [-9.226829, 38.7634487]}, "properties": {"name": "Go Chef Amadora", "cat": "leisure", "info": "Великий міжнародний буфет, безкоштовний паркінг, безалкогольні напої в ціні. Обід €16,95/€8,95 дитина. Передоплата обов'язкова, перед візитом краще дзвонити — ціни на сайті різнилися.<br>📍 R. da Quinta da Bolacha 21, Amadora<br><span style='opacity:.6'>13.7 км від дому</span>"}}, {"type": "Feature", "geometry": {"type": "Point", "coordinates": [-9.3274296, 38.6848935]}, "properties": {"name": "Supremacia Sushi Carcavelos", "cat": "leisure", "info": "Суші-родізіо, 3 хв від Каркавелуша, найкраща дитяча ціна: €5 для 3-5р, півціни для 6-10р. Вегетаріанські роли зазвичай є, склад не перевірений повністю. Вт-нд, пн зачинено.<br>📍 Av. Dr. Francisco Lucas Pires 255B, Carcavelos<br><span style='opacity:.6'>2.3 км від дому</span>"}}, {"type": "Feature", "geometry": {"type": "Point", "coordinates": [-9.1454832, 38.7133991]}, "properties": {"name": "daTerra Bairro Alto", "cat": "leisure", "info": "100% рослинний буфет, найдешевший вегетаріанський варіант — €8,50 обід буд./€11,50 вечеря і вихідні. Меню змінюється щодня, десерти без глютену.<br>📍 Rua da Rosa 55, Lisboa<br><span style='opacity:.6'>18.2 км від дому</span>"}}, {"type": "Feature", "geometry": {"type": "Point", "coordinates": [-9.1401796, 38.7112988]}, "properties": {"name": "Jardim das Cerejas", "cat": "leisure", "info": "Вегетаріансько-веганський буфет, #1 серед вегетаріанських у Лісабоні за Google (4,6★/2156 відгуків). Буфет ~€12,50, є навіть піца.<br>📍 Calçada do Sacramento 36, Chiado, Lisboa<br><span style='opacity:.6'>18.6 км від дому</span>"}}, {"type": "Feature", "geometry": {"type": "Point", "coordinates": [-9.1160023, 38.6297097]}, "properties": {"name": "Lidl Outlet Seixal (Amora)", "cat": "shop", "info": "Непродовольчі товари (дім, кухня, текстиль, інструменти) зі знижкою до −90%. П'ятниця–неділя 10:00–20:00.<br>📍 Amora, Seixal<br><span style='opacity:.6'>21.6 км від дому</span>"}}, {"type": "Feature", "geometry": {"type": "Point", "coordinates": [-9.1197852, 38.8130238]}, "properties": {"name": "Dois Ucranianos (Deutsch Ukrainian)", "cat": "car", "info": "Головна автомайстерня родини (Telegram @dois_ucranianos, тел +351 962 105 663). Реально робили ТО 12.08.2026: заміна масла + всі фільтри, ~200€. Лише за записом.<br>📍 Tv. das Flores 47, 2680-038 Camarate<br><span style='opacity:.6'>24.4 км від дому</span>"}}, {"type": "Feature", "geometry": {"type": "Point", "coordinates": [-9.3370893, 38.7417571]}, "properties": {"name": "Oficina AlexAuto (Alex Auto)", "cat": "car", "info": "Найближча СТО (~5-10 хв). Українець Александр, тел 963 126 916. Назвав ~€150 за ТО усно, без письмового кошторису, без запису.<br>📍 R. Montijo 229, S. Domingos de Rana<br><span style='opacity:.6'>6.0 км від дому</span>"}}, {"type": "Feature", "geometry": {"type": "Point", "coordinates": [-9.2232571, 38.7479402]}, "properties": {"name": "Tyre Service", "cat": "car", "info": "СТО, тел/WhatsApp 920 149 199. Дав кошторис на ТО €220 (знижка з €260). Олива+фільтри+діагностика ходової.<br>📍 R. das Escolas 2, Damaia, Amadora<br><span style='opacity:.6'>13.0 км від дому</span>"}}, {"type": "Feature", "geometry": {"type": "Point", "coordinates": [-9.408232, 38.7397519]}, "properties": {"name": "80LVL", "cat": "shop", "info": "Авто/мотосервіс і детейлінг, тел 926 269 993 / 923 224 400. Кошторис на ТО €268,13 (3 фільтри, без ходової). Комплексна мийка від €70.<br>📍 Alcabideche<br><span style='opacity:.6'>7.4 км від дому</span>"}}, {"type": "Feature", "geometry": {"type": "Point", "coordinates": [-9.3066645, 38.76036]}, "properties": {"name": "Block28", "cat": "shop", "info": "Автосервіс, тел 927 640 007. Найдетальніший кошторис на ТО — €301,15 (промивка двигуна+3 фільтри+2 год роботи), користувач визнав задорого.<br>📍 Estr. de Paço de Arcos 88, Agualva-Cacém (Cacém Park)<br><span style='opacity:.6'>8.8 км від дому</span>"}}, {"type": "Feature", "geometry": {"type": "Point", "coordinates": [-9.2140226, 38.7772705]}, "properties": {"name": "Level Garage", "cat": "car", "info": "СТО з найбільшою базою відгуків (4.9/288), тел 915 681 247. Розглядали як кандидата на ремонт після ДТП, кошторис на ТО не брали.<br>📍 R. Gago Coutinho 58-59, Pontinha, Odivelas<br><span style='opacity:.6'>15.5 км від дому</span>"}}, {"type": "Feature", "geometry": {"type": "Point", "coordinates": [-9.204016, 38.7901207]}, "properties": {"name": "Caryakman / Yakov auto&paint", "cat": "car", "info": "Автомайстерня Якова, тел 912 163 296. ВИКЛЮЧЕНО 02.09.2026 — постачальник не зміг ідентифікувати запчастини на американський Ford Escape, треба було лишати авто на 2-3 дні.<br>📍 Tv. Egas Moniz 9A, Famões, Odivelas<br><span style='opacity:.6'>17.1 км від дому</span>"}}, {"type": "Feature", "geometry": {"type": "Point", "coordinates": [-9.2539466, 38.8496159]}, "properties": {"name": "VVT AUTO", "cat": "car", "info": "СТО механіка Віталія Тимкова, тел 962 509 608, 5.0★/22. Написали — не відповів, тому фактично вибула з розгляду.<br>📍 R. João de Deus 40 Arm.A, Almargem do Bispo, Sintra<br><span style='opacity:.6'>19.7 км від дому</span>"}}, {"type": "Feature", "geometry": {"type": "Point", "coordinates": [-9.3044083, 38.7736735]}, "properties": {"name": "FixCar (Sergiy Kosyak)", "cat": "car", "info": "Автосервіс, тел 964 754 124. 4.7★/17, але є гучний негативний відгук про якість роботи — розглядали з застереженням.<br>📍 Av. dos Missionários 61, Agualva-Cacém<br><span style='opacity:.6'>10.2 км від дому</span>"}}, {"type": "Feature", "geometry": {"type": "Point", "coordinates": [-9.408232, 38.7397519]}, "properties": {"name": "CAM Ford", "cat": "car", "info": "Офіційний дилер Ford, тел 210 009 600. OEM-деталі, сам веде справу зі страховою; американські кузовні деталі — лише спецзамовлення.<br>📍 Alcabideche (~9 км)<br><span style='opacity:.6'>7.4 км від дому</span>"}}, {"type": "Feature", "geometry": {"type": "Point", "coordinates": [-9.3927919, 38.7340579]}, "properties": {"name": "Centrauto Alcabideche", "cat": "car", "info": "Магазин автозапчастин, рекомендований для масла й фільтрів на Ford Escape. Тел 21 936 3421, сайт centrauto.pt, 4.2★/180, знижки по NIF.<br>📍 Estr. de Manique 1604 R/C Esq., 2645-475 Alcabideche<br><span style='opacity:.6'>6.0 км від дому</span>"}}, {"type": "Feature", "geometry": {"type": "Point", "coordinates": [-9.3492194, 38.7808192]}, "properties": {"name": "CentrAuto Mem Martins", "cat": "car", "info": "Друга філія Centrauto, далі від дому, тел 21 192 0593, 4.2★/274.<br>📍 Estr. Mem Martins 6, 2725-109 Sintra<br><span style='opacity:.6'>10.1 км від дому</span>"}}, {"type": "Feature", "geometry": {"type": "Point", "coordinates": [-9.3901368, 38.7095707]}, "properties": {"name": "Alecarpeças", "cat": "car", "info": "Магазин автозапчастин в Estoril, рейтинг вищий за Centrauto (4.6★/281) — записаний як варіант для порівняння, дзвінком не звірений.<br>📍 Estoril<br><span style='opacity:.6'>3.9 км від дому</span>"}}, {"type": "Feature", "geometry": {"type": "Point", "coordinates": [-9.3363368, 38.6953922]}, "properties": {"name": "Norauto Carcavelos", "cat": "car", "info": "Мережевий магазин запчастин+сервіс, тел 211 500 480, 4.6★/194. Писали — відповіді не отримали.<br>📍 Estrada da Alagoa 96, Carcavelos<br><span style='opacity:.6'>1.6 км від дому</span>"}}, {"type": "Feature", "geometry": {"type": "Point", "coordinates": [-9.2156966, 38.7318267]}, "properties": {"name": "Decathlon Alfragide", "cat": "shop", "info": "Спортивний магазин (~8 хв від CascaiShopping), де продають бюджетні велосипеди B'Twin/Rockrider і шорти Kiprun.<br>📍 Alfragide<br><span style='opacity:.6'>12.8 км від дому</span>"}}, {"type": "Feature", "geometry": {"type": "Point", "coordinates": [-9.3417434, 38.7015666]}, "properties": {"name": "BoardExchange", "cat": "shop", "info": "Найбільший склад вживаних дощок/SUP (80–500€), 5-10 хв від Parede. WhatsApp +351 911 894 592, викуповує старі дошки.<br>📍 São Domingos de Rana<br><span style='opacity:.6'>1.7 км від дому</span>"}}, {"type": "Feature", "geometry": {"type": "Point", "coordinates": [-9.1994775, 38.7481712]}, "properties": {"name": "SupXperienceStore", "cat": "shop", "info": "Магазин з секцією вживаних/демо SUP (продає Red Paddle Co); запис на суботу 10-13, info@supxperiencestore.com.<br>📍 Benfica<br><span style='opacity:.6'>14.8 км від дому</span>"}}, {"type": "Feature", "geometry": {"type": "Point", "coordinates": [-9.2336068, 38.6445165]}, "properties": {"name": "Windspirit Club", "cat": "shop", "info": "Офіційний дистриб'ютор Fanatic + прокат; можна спитати вживані ex-прокатні дошки наприкінці сезону. Тел +351 968 689 188.<br>📍 Costa da Caparica<br><span style='opacity:.6'>11.5 км від дому</span>"}}, {"type": "Feature", "geometry": {"type": "Point", "coordinates": [-9.2177492, 38.7221479]}, "properties": {"name": "Cash Converters", "cat": "shop", "info": "Мережа секонд-хенду з гарантією 36 міс і поверненням 14 днів; найближча філія — Alfragide.<br>📍 R. Quinta do Paizinho 2, Edf. Trevo, Alfragide<br><span style='opacity:.6'>12.3 км від дому</span>"}}, {"type": "Feature", "geometry": {"type": "Point", "coordinates": [-9.3268074, 38.7039154]}, "properties": {"name": "Yuri's Barbershop", "cat": "shop", "info": "Топ-барбер найближче до дому, 4.9★, €15/€19. Вт-Сб 10:00–20:00, тел 914 598 804 (запис WhatsApp).<br>📍 R. Luís de Camões 28B, Carcavelos<br><span style='opacity:.6'>2.8 км від дому</span>"}}, {"type": "Feature", "geometry": {"type": "Point", "coordinates": [-9.3607832, 38.7037612]}, "properties": {"name": "Fica Faded", "cat": "shop", "info": "Барбер прямо в Parede, власник Angelo (ПАР, рідна англійська), €15/€20, hot-towel shave €30.<br>📍 R. João Villaret 354, Parede<br><span style='opacity:.6'>1.7 км від дому</span>"}}, {"type": "Feature", "geometry": {"type": "Point", "coordinates": [-9.3351387, 38.7003194]}, "properties": {"name": "Barbearia Vasco da Gama 2", "cat": "shop", "info": "Базовий барбер, 4.9★/23, ~€12-15. Пн-Сб 10:00–19:00.<br>📍 Av. São Miguel 296, Carcavelos<br><span style='opacity:.6'>2.0 км від дому</span>"}}, {"type": "Feature", "geometry": {"type": "Point", "coordinates": [-9.3015702, 38.7056839]}, "properties": {"name": "Sanjam Homem", "cat": "shop", "info": "Барбер у ТЦ, до 23:00, змішані відгуки на ціну/якість. Тел 214 411 448.<br>📍 Oeiras Parque, 1 поверх<br><span style='opacity:.6'>4.8 км від дому</span>"}}, {"type": "Feature", "geometry": {"type": "Point", "coordinates": [-9.3034034, 38.6922336]}, "properties": {"name": "Senhor Barbeiro", "cat": "shop", "info": "Найкращий барбер в Oeiras, 5.0★/146, €18/€26, є барботерапія.<br>📍 Rua Dr. António Patrício Gouveia 14B, Oeiras<br><span style='opacity:.6'>4.3 км від дому</span>"}}, {"type": "Feature", "geometry": {"type": "Point", "coordinates": [-9.3037696, 38.6928555]}, "properties": {"name": "Barbearia Paulo Figueiredo", "cat": "shop", "info": "Найдешевший в Oeiras, 4.9★, €13/€17. Тел +351 966 204 471.<br>📍 Rua António Patrício Gouveia 23D, Oeiras<br><span style='opacity:.6'>4.3 км від дому</span>"}}, {"type": "Feature", "geometry": {"type": "Point", "coordinates": [-9.265428, 38.7450202]}, "properties": {"name": "Barbearia VIP", "cat": "shop", "info": "4.9★/27, ~€18.<br>📍 Rua Cândido dos Reis 61, Oeiras<br><span style='opacity:.6'>9.8 км від дому</span>"}}, {"type": "Feature", "geometry": {"type": "Point", "coordinates": [-9.3048467, 38.6971207]}, "properties": {"name": "Barbearia Paris 80", "cat": "shop", "info": "Англомовний барбер (майстер Vitória), 5★ з 1980 року, ~€15+. Тел +351 934 416 215.<br>📍 Figueirinha, Oeiras<br><span style='opacity:.6'>4.3 км від дому</span>"}}, {"type": "Feature", "geometry": {"type": "Point", "coordinates": [-9.4173209, 38.700576]}, "properties": {"name": "Its Hair Style", "cat": "shop", "info": "Величезна репутація 4.9★/5281, €17/€28. Тел +351 21 405 6142.<br>📍 Alameda Duquesa de Palmela 341A, Cascais<br><span style='opacity:.6'>5.7 км від дому</span>"}}, {"type": "Feature", "geometry": {"type": "Point", "coordinates": [-9.4217838, 38.6987741]}, "properties": {"name": "Marques Jr", "cat": "shop", "info": "Англомовний барбер преміум-класу, топ-відгуки. Тел +351 935 067 730.<br>📍 R. Nova da Alfarrobeira 6 Lj17, Cascais<br><span style='opacity:.6'>6.1 км від дому</span>"}}, {"type": "Feature", "geometry": {"type": "Point", "coordinates": [-9.4298608, 38.7014375]}, "properties": {"name": "Danilio Barbers", "cat": "shop", "info": "Новий барбер, меню EN/PT, €16/€20.<br>📍 Rua Jaime Thompson 100A, Cascais<br><span style='opacity:.6'>6.8 км від дому</span>"}}, {"type": "Feature", "geometry": {"type": "Point", "coordinates": [-9.1534938, 38.7333576]}, "properties": {"name": "Jean Louis David @ El Corte Inglés", "cat": "shop", "info": "Барбер прямо в універмазі, зручно сумістити з шопінгом. Тел +351 927 430 805.<br>📍 Av. António Augusto de Aguiar 31, Cave 1 (−1 поверх), Lisboa<br><span style='opacity:.6'>18.0 км від дому</span>"}}, {"type": "Feature", "geometry": {"type": "Point", "coordinates": [-9.1308178, 38.761907]}, "properties": {"name": "Lisbon'Style Barbershop Alvalade", "cat": "shop", "info": "Англомовний («todos falam inglês»), 184 відгуки, Пн-Сб 10-22.<br>📍 Av. do Brasil 149, Lisboa<br><span style='opacity:.6'>20.9 км від дому</span>"}}, {"type": "Feature", "geometry": {"type": "Point", "coordinates": [-9.1430984, 38.7262495]}, "properties": {"name": "Kristian (барбер)", "cat": "shop", "info": "З україномовних чатів, онлайн-запис buk.app/kris-barber-lisboa.<br>📍 R. Ferreira Lapa 20A, Lisboa<br><span style='opacity:.6'>18.7 км від дому</span>"}}, {"type": "Feature", "geometry": {"type": "Point", "coordinates": [-9.1450121, 38.7351068]}, "properties": {"name": "Ketrin (перукар/барбер)", "cat": "shop", "info": "З україномовних чатів, стрижки/колорист, EN/UA/DE/RU. Тел +351 925 606 748.<br>📍 Av. Duque de Ávila 171C, Lisboa<br><span style='opacity:.6'>18.8 км від дому</span>"}}, {"type": "Feature", "geometry": {"type": "Point", "coordinates": [-9.3536712, 38.6947116]}, "properties": {"name": "STOP – Livraria e Papelaria Lda", "cat": "servico", "info": "Найближча до дому книгарня-учасниця MEGA, де можна погасити 4 з 6 ваучерів Ані (Português, Ciências Naturais, Educação Tecnológica, Inglês). Це кандидат зі списку порталу manuaisescolares.pt, а не підтверджений факт відвідування — дзвінок напередодні не робили.<br>📍 Av. Bombeiros Voluntários 595 C, 2775-169 Parede<br><span style='opacity:.6'>0.6 км від дому</span>"}}, {"type": "Feature", "geometry": {"type": "Point", "coordinates": [-9.3481173, 38.6890951]}, "properties": {"name": "Квартира — Rua Alfredo Manuel Fernandes 90, Parede", "cat": "housing", "info": "Поточна орендована квартира, €2000/міс, договір з 15.11.2024 (продовжений до 15.11.2026). Родина вже попередила власника про непродовження, виїзд запланований на 15.11.2026.<br>📍 Rua Alfredo Manuel Fernandes 90, Parede<br><span style='opacity:.6'>0.4 км від дому</span>"}}, {"type": "Feature", "geometry": {"type": "Point", "coordinates": [-9.3768377, 38.7097875]}, "properties": {"name": "Адреса орендодавця (Hugo Glória)", "cat": "housing", "info": "Поштова адреса власника квартири (Hugo Filipe Martins Silva Canelas da Glória) — сюди по контракту треба слати офіційний рекомендований лист про розірвання оренди.<br>📍 Rua Gonçalves Zarco 14, 2765-181 Estoril<br><span style='opacity:.6'>3.1 км від дому</span>"}}, {"type": "Feature", "geometry": {"type": "Point", "coordinates": [-9.3384315, 38.6998835]}, "properties": {"name": "T2, Rua Virgílio Correia 10C", "cat": "housing", "info": "Конкретна квартира-кандидат з топ-10 пошуку оренди (€1650/79м², 1992 р., гарна інсоляція), але з жорсткими умовами — застава €3300, потрібен поручитель, 2 місяці наперед, договір на 5 років. В підсумковому рейтингу опустилась на нижні місця через ці умови.<br>📍 Rua Virgílio Correia 10C, Carcavelos e Parede<br><span style='opacity:.6'>1.7 км від дому</span>"}}, {"type": "Feature", "geometry": {"type": "Point", "coordinates": [-9.4086931, 38.7187188]}, "properties": {"name": "Serviço de Finanças Cascais-1", "cat": "servico", "info": "💶 Друга податкова концелью (код 1503) — охоплює Alcabideche, Cascais, Estoril. <b>Наша — Cascais-2 у Parede</b>, сюди тільки якщо відправлять.<br>📍 Av. Ultramar, Edifício Vimar 3-5, Cascais (біля вокзалу)"}}, {"type": "Feature", "geometry": {"type": "Point", "coordinates": [-9.1414711, 38.7099386]}, "properties": {"name": "Encanto — José Avillez (⭐ Мішлен, 100% вегетаріанський)", "cat": "resto", "info": "⭐🌱 <b>ГОЛОВНЕ МІСЦЕ ДЛЯ НАС У КРАЇНІ.</b> Перший вегетаріанський ресторан Піренейського півострова із зіркою Мішлен (2022) + <b>Зелена зірка (2025)</b> за сталість.<br>Одне дегустаційне меню, <b>100% вегетаріанське, ~12 подач — €155/особу</b>. Овочі, листя, насіння, водорості, гриби, квіти, яйця, сири. Zero waste, продукти від місцевих фермерів, меню змінюється за сезоном.<br>Зал на 50 місць, бібліотека по стінах і стелі.<br><b>Вт–сб 18:45–22:30, лише вечеря.</b> Нд, пн зачинено.<br>Бронь онлайн до 8 осіб: encantojoseavillez.pt/en/reservations<br>☎ +351 211 626 310"}}, {"type": "Feature", "geometry": {"type": "Point", "coordinates": [-9.4090683, 38.7071432]}, "properties": {"name": "Monte's Bistro — Monte Estoril", "cat": "resto", "info": "🥇 <b>Найкраще на тихий вечір удвох поруч з домом (~8 хв).</b> ~10 столів, шеф-власник, відгуки: «bistro tranquilo, familiar».<br><b>Вег порахований по меню: 4 закуски + 2 головні + суп + 8 десертів.</b> Ньокі з горошком, лісовими грибами, козячим сиром і трюфельною олією €18 · вег-бургер з грибами і каштанами €16,50 · хумус з буряка €9,50 · самоса з грибами €9,50 · козячий сир гратен €11 · темпура з овочів €11.<br>⚠️ «Croquetes de alheira» — ковбаса, НЕ вег.<br>Сер. чек €26 · TheFork 9,6 (241)<br>Пт 12:00–15:00 і 19:00–22:00 · ☎ +351 210 190 758<br>Бронь: thefork.pt/restaurante/restaurante-monte-s-bistro-r837819"}}, {"type": "Feature", "geometry": {"type": "Point", "coordinates": [-9.3931956, 38.7036362]}, "properties": {"name": "Lamassa — Fresh Handmade Pasta (Estoril)", "cat": "resto", "info": "🍝 <b>Найкамерніше поруч — ВСЬОГО ШІСТЬ СТОЛІВ</b> (15–20 місць). Португалець Pedro + італійка Romina, свіжа паста вручну.<br>Вег: раволі з грибами / шпинатом / рікотою. Меню змішане, м'ясні страви теж є.<br>⚠️ <b>Вечеря ТІЛЬКИ пт і сб 19:00–22:30.</b> Обід вт–нд 12:30–15:00. Пн зачинено.<br>⚠️ <b>Онлайн-броні немає</b>, лише телефон, бронювати за кілька днів.<br>TripAdvisor 4,7 (446) · #3 зі 124 в Ешторілі<br>☎ +351 968 483 040 · reservas@lamassafhp.pt"}}, {"type": "Feature", "geometry": {"type": "Point", "coordinates": [-9.3777518, 38.7320864]}, "properties": {"name": "Conceito — Bicesse (дегустаційне меню)", "cat": "resto", "info": "🍷 Шеф Daniel Estriga (працював у Quique Dacosta), відкрита кухня, дружина Vanessa веде зал. ~12 хв від дому.<br>⚠️ <b>ЗІРКИ МІШЛЕН НЕМАЄ</b> — лише «Selected» у гіді, позначка «Favorito do inspetor». Не плутати.<br>Два сюрприз-меню по 7 подач: «Viagem» і «Degustação», <b>обидва €82</b>.<br>⚠️ <b>Вег-меню не заявлене.</b> Просять попередити про обмеження заздалегідь — питати при броні.<br>⚠️ Потрібно 2,5–3 год за столом; відчиняється о 19:30.<br>Вт–сб 19:30–23:00 · нд, пн зачинено<br>Бронь ТІЛЬКИ по телефону вт–сб 15:00–19:00: ☎ 218 085 281 / 936 397 764 · reservas@oconceito.pt"}}, {"type": "Feature", "geometry": {"type": "Point", "coordinates": [-9.4190125, 38.698481]}, "properties": {"name": "House of Wonders — Cascais", "cat": "resto", "info": "🌿 <b>100% вегетаріанський</b>, у старому Кашкайші. Середземноморсько-близькосхідне мезе (гаряче й холодне), салати, свіжі соки, торти. Веганське — на запит, більшість страв адаптують.<br>Кілька рівнів: галерея з роботами місцевих художників + <b>дах з видом</b>, один із найкращих майданчиків міста на сонячний обід.<br>⚠️ Фіксованого друкованого меню немає — «візуальне меню» вітринного типу. Місць на даху мало, на захід сонця їх розбирають.<br>~€16,50 за страву · HappyCow 4,5 (295)<br>Щодня 9:00–22:00 · ☎ +351 911 702 428"}}, {"type": "Feature", "geometry": {"type": "Point", "coordinates": [-9.3372134, 38.6893914]}, "properties": {"name": "Alma Veg — Carcavelos", "cat": "resto", "info": "🌱 <b>100% веганський і найближчий до дому (~5 хв).</b> Португальсько-середземноморське: petiscos, страви в хлібі, pratos da casa, десерти. Фірмове — <b>веганський pastel de bacalhau</b> і бразильська веганська фейжоада.<br>Pet-friendly, тераса, тейк-евей, кейтеринг.<br>⚠️ <b>Вечеря лише чт–сб 19:00–22:00</b> (у середу вечері немає). Обід ср–нд 11:00–16:00. Пн, вт зачинено.<br>⚠️ Цін на сайті немає. На вихідні ввечері бронювати.<br>HappyCow 5,0 (51) · ☎ +351 915 621 546"}}, {"type": "Feature", "geometry": {"type": "Point", "coordinates": [-9.4183822, 38.7003014]}, "properties": {"name": "Honest Greens — Cascais", "cat": "resto", "info": "🥗 <b>Величезний вег-вибір і відчинено найдовше з усіх.</b> Фалафель, стир-фрай з темпе, боули-конструктори, хумус на двох, авокадо-тост, буріто зі скрембл-тофу, смузі-боули, веганські десерти.<br>Біля вокзалу Кашкайша. Найбільший їхній ресторан у Португалії — <b>283 місця</b>, тераси й патіо.<br>⚠️ Мережа (іспанська), не авторське місце. Меню НЕ повністю вегетаріанське. Через розмір — гамірно.<br>Пн–чт і нд 8:30–23:00 · <b>пт–сб 8:30–00:00</b><br>honestgreens.com"}}, {"type": "Feature", "geometry": {"type": "Point", "coordinates": [-9.3373235, 38.689367]}, "properties": {"name": "M Café — Carcavelos (веганський бранч)", "cat": "resto", "info": "🥞 <b>Рослинний бранч, ~5 хв від дому</b>, на Praça do Junqueiro. Веганські панкейки, скрембл з тофу, солона вафля з яйцем-пашот, смузі-боули з тропічними фруктами, веганські торти. Спешелті-кава.<br>⚠️ <b>Тільки денний формат — вечері немає взагалі.</b> Пн зачинено.<br>Вт–пт 9:00–17:30 · сб–нд 9:00–19:00<br>@mcafe.carcavelos<br>⚠️ Чи 100% веганський — не підтверджено, HappyCow пише «vegan-friendly»."}}, {"type": "Feature", "geometry": {"type": "Point", "coordinates": [-9.4215229, 38.6974858]}, "properties": {"name": "Bubbles and Bites — Cascais", "cat": "resto", "info": "🫧 <b>TheFork Top50 #2 у країні, 9,6 з 2426 відгуків</b>, сер. чек €20. Фʼюжн.<br>Вег більше ніж для галочки: бургер Beyond Meat, веганське карі, вегетаріанське карі, веганська страва в стилі суші-рису. Але меню спільне з м'ясом і морепродуктами.<br>⚠️ <b>Чт зачинено.</b> У пʼятницю працює інакше: <b>16:30–23:00, без обіду.</b> Решта днів 12:30–15:00 і 18:30–23:00.<br>☎ +351 219 016 254 · бронь на thefork.pt (знижки до −30%)"}}, {"type": "Feature", "geometry": {"type": "Point", "coordinates": [-9.4229652, 38.7021383]}, "properties": {"name": "Local — Your Healthy Kitchen (Cascais)", "cat": "resto", "info": "🥙 Здорові боули й тарілки, азійський ухил. TheFork 9,3 (1588), сер. чек €19. Відгуки прямо хвалять «vários opções vegetarianas».<br>Вег зі знайдених: гаспачо €6,20 · томат/бурата/нектарин €11,55 · хумус з морквою і селерою €8,15.<br>⚠️ <b>НЕ вегетаріанський заклад</b> — у меню є органічна курка й лосось. Це «є що поїсти», а не вег-місце.<br>Бронюється на thefork.pt, буває −30%."}}, {"type": "Feature", "geometry": {"type": "Point", "coordinates": [-9.3541582, 38.6902665]}, "properties": {"name": "LaMusik — Parede (жива музика)", "cat": "resto", "info": "🎷 <b>Найвищий рейтинг у Parede — TheFork 9,7</b>, і це буквально поруч. Авторська португальська кухня, шеф David da Conceição, проєкт музичного агента Rodrigo Balona. Живий джаз, боса-нова, соул. Декор-джунглі, сигнатурні коктейлі.<br>⚠️ <b>НЕ для тихої розмови вдвох</b> — музика гучна за задумом.<br>⚠️ <b>Вегетаріанського в меню не знайдено</b> — названі страви це бакальяу і антрекот. Дзвонити і питати наперед.<br>Пт–сб 19:00–02:00 · ср–чт 19:30–22:00 · сер. чек €19<br>☎ +351 912 383 745"}}, {"type": "Feature", "geometry": {"type": "Point", "coordinates": [-16.7623, 32.7184]}, "properties": {"name": "🏝️ Banda d'Além (Machico)", "cat": "leisure", "info": "<b>Завезений жовтий пісок</b>, 70×100 м, спокійна бухта.<br>Рівний вхід з набережної, пандуси, душі, кабінки, бар.<br>Рятувальники до 27.09 — у жовтні нема."}}, {"type": "Feature", "geometry": {"type": "Point", "coordinates": [-16.7644, 32.7148]}, "properties": {"name": "🏝️ Praia de São Roque (Machico)", "cat": "leisure", "info": "Дрібна кругла галька, та сама бухта Машіку, ~240 м від Banda d'Além.<br>Точка приблизна (біля Cais de São Roque)."}}, {"type": "Feature", "geometry": {"type": "Point", "coordinates": [-16.791, 32.6879]}, "properties": {"name": "🏝️ Praia das Palmeiras (Santa Cruz)", "cat": "leisure", "info": "Галька + <b>два солоні басейни, є дитячий</b>.<br>Рівний доступ, душі, туалети, ресторан. Біля ринку Santa Cruz.<br>Рятувальники до 30.09."}}, {"type": "Feature", "geometry": {"type": "Point", "coordinates": [-16.8244, 32.6477]}, "properties": {"name": "🏝️ Reis Magos (Caniço de Baixo)", "cat": "leisure", "info": "Базальтова галька + бетонна платформа, місцями вхід драбиною.<br>Рівна набережна ~650 м, 2 бари, найбільше сімейних готелів поза Фуншалом."}}, {"type": "Feature", "geometry": {"type": "Point", "coordinates": [-16.7163, 32.7439]}, "properties": {"name": "🏝️ Prainha (Caniçal)", "cat": "leisure", "info": "<b>Природний чорний вулканічний пісок</b>.<br>⚠️ Крута сходова стежка в скелі; офіційно «пляж обмеженого використання» (каменепад).<br>Точка — біля входу."}}, {"type": "Feature", "geometry": {"type": "Point", "coordinates": [-16.7443, 32.7353]}, "properties": {"name": "🏝️ Ribeira do Natal (Caniçal)", "cat": "leisure", "info": "Базальтова галька, бетонний пірс із драбиною, бар.<br>⚠️ Офіційно «пляж обмеженого використання» (каменепад)."}}, {"type": "Feature", "geometry": {"type": "Point", "coordinates": [-16.8302, 32.7746]}, "properties": {"name": "🏝️ Praia da Alagoa (Porto da Cruz)", "cat": "leisure", "info": "<b>Природний чорний пісок</b> + 2 басейни (є дитячий), ресторан.<br>Північ острова — хвиль і вітру більше. 12 хв від Машіку."}}, {"type": "Feature", "geometry": {"type": "Point", "coordinates": [-16.9512, 32.6392]}, "properties": {"name": "🏝️ Praia Formosa (Funchal)", "cat": "leisure", "info": "Чорний вулканічний пісок + кругла галька, 2 км.<br>Дерев'яний поміст у воду, майданчик 2-12 р, кафе. Найрівніша набережна Фуншала."}}, {"type": "Feature", "geometry": {"type": "Point", "coordinates": [-16.8529, 32.6386]}, "properties": {"name": "🏝️ Praia do Garajau", "cat": "leisure", "info": "Дрібна чорна галька, заповідник (снорклінг).<br>Спуск канаткою біля Cristo Rei.<br>⚠️ «Пляж обмеженого використання»."}}, {"type": "Feature", "geometry": {"type": "Point", "coordinates": [-17.1741, 32.7186]}, "properties": {"name": "🏝️ Praia da Calheta", "cat": "leisure", "info": "<b>Завезений жовтий пісок</b>, дві бухти за молами — найспокійніша вода острова.<br>Далеко: ~50 хв від Фуншала/аеропорту."}}, {"type": "Feature", "geometry": {"type": "Point", "coordinates": [-17.1024, 32.8228]}, "properties": {"name": "🏝️ Porto do Seixal", "cat": "leisure", "info": "<b>Чорний вулканічний пісок</b> під зеленими скелями + лавові басейни (€2,50).<br>Північний захід — вилазка на день, разом з Порту-Моніш."}}, {"type": "Feature", "geometry": {"type": "Point", "coordinates": [-17.17019, 32.86866]}, "properties": {"name": "🏝️ Piscinas Naturais Porto Moniz", "cat": "leisure", "info": "Лавові басейни з морською водою, є мілкий дитячий.<br><b>Єдине місце з рятувальниками до 15.10</b>. €3 з 3 років."}}, {"type": "Feature", "geometry": {"type": "Point", "coordinates": [-16.93283, 32.63558]}, "properties": {"name": "🏝️ Complexo Balnear do Lido (Funchal)", "cat": "leisure", "info": "Басейни з морською водою, <b>2 дитячі</b>, драбини в море, ресторан. Цілий рік.<br>€6 дорослий, €2 для 7-17, до 6 р. безкоштовно."}}, {"type": "Feature", "geometry": {"type": "Point", "coordinates": [-16.92871, 32.73573]}, "properties": {"name": "⛰️ Pico do Arieiro", "cat": "nature", "info": "1818 м, під'їзд машиною до вершини. Схід сонця над хмарами.<br>Звідси стежка на Pico Ruivo (складна, не з дворічною)."}}, {"type": "Feature", "geometry": {"type": "Point", "coordinates": [-16.92085, 32.76533]}, "properties": {"name": "⛰️ Achada do Teixeira → Pico Ruivo", "cat": "nature", "info": "Найкоротший шлях на найвищу вершину (1862 м): ~2,8 км в один бік.<br>З дворічною — тільки в кенгуру."}}, {"type": "Feature", "geometry": {"type": "Point", "coordinates": [-16.88694, 32.73962]}, "properties": {"name": "🌿 Ribeiro Frio — Vereda dos Balcões", "cat": "nature", "info": "<b>Найлегша левада острова</b>: 1,5 км рівно до оглядового майданчика Balcões.<br>Можна з коляскою. Левади платні: €4,50/особа, онлайн (simplifica.madeira.gov.pt)."}}, {"type": "Feature", "geometry": {"type": "Point", "coordinates": [-16.88241, 32.80526]}, "properties": {"name": "🏡 Casas de Santana", "cat": "nature", "info": "Трикутні солом'яні будиночки, безкоштовно.<br>Поруч Parque Temático (тварини, критий дитячий павільйон)."}}, {"type": "Feature", "geometry": {"type": "Point", "coordinates": [-16.88561, 32.80215]}, "properties": {"name": "🎡 Parque Temático da Madeira", "cat": "nature", "info": "Рівна територія, тварини, дитячий павільйон. Вт-нд 10-18.<br>Ціни на сайті «sob consulta» — уточнити."}}, {"type": "Feature", "geometry": {"type": "Point", "coordinates": [-16.90604, 32.7836]}, "properties": {"name": "🌿 Caldeirão Verde (старт Queimadas)", "cat": "nature", "info": "Водоспад у зеленому кратері, 13 км туди-назад, 4 неосвітлені тунелі.<br><b>Не з дворічною</b>. Пікнік-парк Queimadas біля старту — ок."}}, {"type": "Feature", "geometry": {"type": "Point", "coordinates": [-16.69492, 32.74631]}, "properties": {"name": "⛰️ Ponta de São Lourenço (Baía d'Abra)", "cat": "nature", "info": "Червоні скелі-півострів, стежка 8 км туди-назад, без тіні.<br>Перші 1-2 км до оглядових — реально з дітьми. 13 хв від Машіку."}}, {"type": "Feature", "geometry": {"type": "Point", "coordinates": [-17.00445, 32.65648]}, "properties": {"name": "👀 Cabo Girão skywalk", "cat": "nature", "info": "Скляна платформа над 580-метровою скелею.<br>€5 дорослий, діти ≤12 безкоштовно."}}, {"type": "Feature", "geometry": {"type": "Point", "coordinates": [-16.96216, 32.71034]}, "properties": {"name": "👀 Eira do Serrado → Curral das Freiras", "cat": "nature", "info": "Оглядовий майданчик над «долиною черниць» — село в кратері.<br>Безкоштовно, 20 хв від Фуншала."}}, {"type": "Feature", "geometry": {"type": "Point", "coordinates": [-17.09514, 32.81608]}, "properties": {"name": "💧 Véu da Noiva (водоспад)", "cat": "nature", "info": "Водоспад просто з дороги — оглядовий майданчик біля кафе.<br>По дорозі на Seixal / Порту-Моніш."}}, {"type": "Feature", "geometry": {"type": "Point", "coordinates": [-17.13443, 32.76153]}, "properties": {"name": "💧 Rabaçal — 25 Fontes і Risco", "cat": "nature", "info": "Два найвідоміші водоспади. Risco — легко (~3 км туди-назад).<br>25 Fontes ~9 км, людно. Від парковки шатл до будиночка Rabaçal."}}, {"type": "Feature", "geometry": {"type": "Point", "coordinates": [-17.14073, 32.8094]}, "properties": {"name": "🌲 Fanal (лавровий ліс)", "cat": "nature", "info": "Туманний ліс зі старими лаврами — прогулянка по рівній галявині.<br>Автобуса нема, тільки машиною."}}, {"type": "Feature", "geometry": {"type": "Point", "coordinates": [-16.90121, 32.66134]}, "properties": {"name": "🚡 Канатка Funchal → Monte", "cat": "nature", "info": "€22 туди-назад дорослий, 7-14 — половина, 0-6 безкоштовно.<br>Нагорі Monte Palace (діти до 14 безкоштовно) і сани carros de cesto."}}, {"type": "Feature", "geometry": {"type": "Point", "coordinates": [-16.89536, 32.6622]}, "properties": {"name": "🌺 Jardim Botânico", "cat": "nature", "info": "€10 від 12 р., €3 для 6-12, до 6 безкоштовно."}}, {"type": "Feature", "geometry": {"type": "Point", "coordinates": [-16.90351, 32.64869]}, "properties": {"name": "🍍 Mercado dos Lavradores", "cat": "nature", "info": "Ринок 1940 р.: маракуйя, анона, банан да Мадейра, квіткарки у вбранні. <b>🪑 йти вживу</b>.<br>Пн-чт 8-19, пт 7-20, сб 7-14. <b>Закрито нд.</b>"}}, {"type": "Feature", "geometry": {"type": "Point", "coordinates": [-16.85068, 32.63856]}, "properties": {"name": "👀 Cristo Rei (Garajau)", "cat": "nature", "info": "Статуя на скелі над морем, оглядовий майданчик. Звідси канатка на пляж Garajau."}}, {"type": "Feature", "geometry": {"type": "Point", "coordinates": [-16.792, 32.6908]}, "properties": {"name": "👀 Miradouro do Rosário (Santa Cruz)", "cat": "nature", "info": "Оглядовий над Santa Cruz: місто, злітна смуга, острови Desertas.<br>Точка приблизна (Estrada do Miradouro)."}}, {"type": "Feature", "geometry": {"type": "Point", "coordinates": [-16.80412, 32.66509]}, "properties": {"name": "⚓ Porto Novo / Bar Ponto de Encontro", "cat": "nature", "info": "Малий причал Porto Novo (Gaula) і снек-бар біля нього, 7:00-20:00.<br>Вег-меню не підтверджено. Офіційного пляжу тут нема."}}, {"type": "Feature", "geometry": {"type": "Point", "coordinates": [-16.84399, 32.68653]}, "properties": {"name": "🌿 Levada dos Tornos (Camacha)", "cat": "nature", "info": "Рівна левада над Каніссу/Фуншалом, можна пройти невеликий відрізок з коляскою."}}, {"type": "Feature", "geometry": {"type": "Point", "coordinates": [-16.93043, 32.63909]}, "properties": {"name": "🍽️ Mundo Vegan (Funchal)", "cat": "resto", "info": "<b>100% веганський</b>: паста, різотто, бургери, десерти.<br>Кухня 12:30-15:45, 18:45-21:30. <b>Закрито ср і нд</b>."}}, {"type": "Feature", "geometry": {"type": "Point", "coordinates": [-16.92418, 32.64069]}, "properties": {"name": "🍽️ Indian Palace (Funchal Lido)", "cat": "resto", "info": "Великий вегетаріанський сет. Tripadvisor 4.8 (~2 950), №1 у Фуншалі.<br>Щодня. Бронювати."}}, {"type": "Feature", "geometry": {"type": "Point", "coordinates": [-16.93486, 32.63883]}, "properties": {"name": "🍽️ Sabor da Índia (Funchal Lido)", "cat": "resto", "info": "Великий вег/веган індійський вибір. ~4.8.<br>12-15, 18-23. <b>Закрито пн</b>."}}, {"type": "Feature", "geometry": {"type": "Point", "coordinates": [-16.94157, 32.63591]}, "properties": {"name": "🍽️ Himalaya Indian & Nepali (Funchal)", "cat": "resto", "info": "Вег/веган опції позначені в меню. Tripadvisor 4.7 (427).<br><b>Закрито вт</b> (за більшістю джерел)."}}, {"type": "Feature", "geometry": {"type": "Point", "coordinates": [-16.93392, 32.6375]}, "properties": {"name": "🍽️ Il Basilico (Funchal Lido)", "cat": "resto", "info": "Італійська, окреме вег/веган меню, веган-піца.<br>Дитяче меню з олівцями. €€€. Щодня 12:30-15:30, 18:30-22."}}, {"type": "Feature", "geometry": {"type": "Point", "coordinates": [-16.94004, 32.63699]}, "properties": {"name": "🍽️ Alforno Madeira (Funchal)", "cat": "resto", "info": "Неаполітанська піца, вег/веган. Щодня 11-23."}}, {"type": "Feature", "geometry": {"type": "Point", "coordinates": [-16.90038, 32.64762]}, "properties": {"name": "🍽️ Basmati Indian & Nepali (Стара частина)", "cat": "resto", "info": "11 вег/веган страв, сімейна атмосфера. Tripadvisor 4.4 (201).<br>Вихідний день не звірено."}}, {"type": "Feature", "geometry": {"type": "Point", "coordinates": [-16.90296, 32.64783]}, "properties": {"name": "🍽️ Art Food Corner (біля Sé)", "cat": "resto", "info": "Кава, бранч, здорове меню, дитяче кафе. Tripadvisor 4.7 (119)."}}, {"type": "Feature", "geometry": {"type": "Point", "coordinates": [-16.90844, 32.64897]}, "properties": {"name": "🍽️ Bioforma (Funchal)", "cat": "resto", "info": "Вегетаріанський буфет з 30-річною історією, дешево, готівка.<br>Пн-пт до ~18, сб до ~13. <b>Закрито нд</b>."}}, {"type": "Feature", "geometry": {"type": "Point", "coordinates": [-16.79173, 32.68762]}, "properties": {"name": "🍽️ Pimpinela's — вегетаріанське кафе (Santa Cruz)", "cat": "resto", "info": "<b>Повністю вегетаріанське</b>: веган-бургери ~€4, сендвічі, десерти.<br>Пн-пт 8-18, сб 8-15. <b>Закрито нд</b>."}}, {"type": "Feature", "geometry": {"type": "Point", "coordinates": [-16.77167, 32.7298]}, "properties": {"name": "🍽️ Alforno Madeira (Machico)", "cat": "resto", "info": "Неаполітанська піца, веган-сир без доплати, <b>дитяча зона</b>.<br>Щодня 12-23."}}, {"type": "Feature", "geometry": {"type": "Point", "coordinates": [-16.76985, 32.70956]}, "properties": {"name": "🍽️ Divino Sapore (Machico)", "cat": "resto", "info": "Піцерія з вег-меню, веган-піца на прохання. ~4.5."}}, {"type": "Feature", "geometry": {"type": "Point", "coordinates": [-16.76499, 32.71781]}, "properties": {"name": "🍽️ Mercado Velho (Machico)", "cat": "resto", "info": "Будівля XVII ст. у центрі. Вег-лазанья, грибне різотто.<br><b>Вівторок вихідний</b>. Є скарги на ціни."}}, {"type": "Feature", "geometry": {"type": "Point", "coordinates": [-16.85033, 32.64287]}, "properties": {"name": "🍽️ Pizzeria La Carbonara (Garajau)", "cat": "resto", "info": "Піца/паста, вег-опції, для дітей ок. Рейтинги розходяться (3.8-4.8)."}}, {"type": "Feature", "geometry": {"type": "Point", "coordinates": [-17.17136, 32.71832]}, "properties": {"name": "🍽️ Manifattura di Gelato (Calheta)", "cat": "resto", "info": "На марині Калгети: піца, паста, багато вег/веган, домашнє морозиво.<br>Щодня 11-22."}}, {"type": "Feature", "geometry": {"type": "Point", "coordinates": [-16.94056, 32.63424]}, "properties": {"name": "🏝️ Complexo Balnear da Ponta Gorda (Funchal)", "cat": "leisure", "info": "Дорослий + <b>дитячий басейн</b>, природний припливний басейн, Kids Club. Цілий рік.<br>Ті самі ціни, що й Lido."}}, {"type": "Feature", "geometry": {"type": "Point", "coordinates": [-16.79693, 32.68376]}, "properties": {"name": "💦 Aquaparque Madeira (Santa Cruz)", "cat": "leisure", "info": "👍 Варто · 🌙 спокійне / вечір · 8 хв від Машіку<br>Аквапарк: гірки, лінива річка, <b>дитяча зона «aqualand»</b>, міні-зоо, шоу птахів о 15:00.<br>€20 / €15 (5-12), <b>до 4 безкоштовно</b> (тариф 2025).<br>⚠️ У 2025 працював лише 28.06-31.08; у 08.2026 оголосили «цілий рік», у вересні відкритий. Жовтень — дзвонити 291 640 535."}}, {"type": "Feature", "geometry": {"type": "Point", "coordinates": [-16.76458, 32.71741]}, "properties": {"name": "🛝 Parque Infantil de Machico", "cat": "leisure", "info": "⭐ <b>Обов'язково</b> · 🌙 спокійне / вечір · 1 хв від Машіку<br>Майданчик на набережній біля форту, 2 хв пішки від Banda d'Além.<br>Безкоштовно. Підходить обом дітям.<br>Готовий вечір: пісок → майданчик → кафе. ⚠️ Тінь і огорожу не перевірено."}}, {"type": "Feature", "geometry": {"type": "Point", "coordinates": [-16.79164, 32.68719]}, "properties": {"name": "🛝 Parque Infantil da Alameda (Santa Cruz)", "cat": "leisure", "info": "👍 Варто · 🌙 спокійне / вечір · 7 хв від Машіку<br>Невеликий майданчик на набережній серед кафе, туалети поруч.<br>Безкоштовно, 30-60 хв.<br>Разом з Palmeiras (басейн з дитячим) і вечерею в Pimpinela's (вег, нд вихідний)."}}, {"type": "Feature", "geometry": {"type": "Point", "coordinates": [-16.84737, 32.64624]}, "properties": {"name": "🛝 Jardim do Garajau — найкращий майданчик", "cat": "leisure", "info": "⭐ <b>Обов'язково</b> · 🌙 спокійне / вечір · 15 хв від Машіку<br><b>№1 серед майданчиків</b> у двох сімейних блогах: дві довгі гірки по схилу, кафе, туалети, BMX, петанк.<br>Безкоштовно, 1-2 год.<br>⚠️ Не огороджений, мало тіні, буває вітряно. Поруч Cristo Rei."}}, {"type": "Feature", "geometry": {"type": "Point", "coordinates": [-16.91476, 32.64455]}, "properties": {"name": "🛝 Parque de Santa Catarina (Фуншал)", "cat": "leisure", "info": "⭐ <b>Обов'язково</b> · 🌙 спокійне / вечір · 24 хв від Машіку<br>Парк над портом: газон, ставок, <b>огороджений майданчик</b>, кафе з туалетом.<br>Безкоштовно, ~1 год, коляска ок.<br>Паркуватись під музеєм CR7 і сходами нагору. Гарний захід сонця над портом."}}, {"type": "Feature", "geometry": {"type": "Point", "coordinates": [-16.92509, 32.644]}, "properties": {"name": "🛝 Quinta Magnólia (Фуншал)", "cat": "leisure", "info": "🔄 Запасне · 🌙 спокійне / вечір · 26 хв від Машіку<br>Тихий парк-садиба: майданчик, кафе-ресторан, теніс і падел.<br>Безкоштовно, ~1 год.<br>⚠️ Майданчик не огороджений. Від Lido ~10 хв вгору."}}, {"type": "Feature", "geometry": {"type": "Point", "coordinates": [-16.91179, 32.65423]}, "properties": {"name": "🛝 Jardim de Santa Luzia (Фуншал)", "cat": "leisure", "info": "🔄 Запасне · 🌙 спокійне / вечір · 23 хв від Машіку<br>Новий парк із п'яти садів (лаурісилва, тераси, водний), майданчик, кафе з туалетом.<br>Безкоштовно, ~1 год.<br>⚠️ Майданчик не огороджений; паркінг перед входом малий, гаражі далі по вулиці."}}, {"type": "Feature", "geometry": {"type": "Point", "coordinates": [-16.9772, 32.64798]}, "properties": {"name": "🛝 Майданчик Câmara de Lobos", "cat": "leisure", "info": "🔄 Запасне · 🌙 спокійне / вечір · 30 хв від Машіку<br>Публічний майданчик у центрі біля бухти (за OSM).<br>Безкоштовно.<br>Пауза для малої під час вечора в Câmara de Lobos. ⚠️ Стан і розмір не перевірено."}}, {"type": "Feature", "geometry": {"type": "Point", "coordinates": [-16.9431, 32.6387]}, "properties": {"name": "🛝 Майданчик Praia Formosa", "cat": "leisure", "info": "🔄 Запасне · 🌙 спокійне / вечір · 26 хв від Машіку<br>Майданчик у центральній частині Praia Formosa, поруч туалети й душі.<br>Безкоштовно.<br>Поєднати з вечірньою прогулянкою набережною Lido → Formosa. ⚠️ Точку взято з OSM, на місці не звірено."}}, {"type": "Feature", "geometry": {"type": "Point", "coordinates": [-16.81697, 32.7258]}, "properties": {"name": "🎡 Quinta do Santo da Serra — олені й поні", "cat": "leisure", "info": "👍 Варто · 🌅 ранок, активне · 9 хв від Машіку<br>Великий парк у горах: <b>олені, коні гаррано, павичі</b>, майданчик, міні-гольф, оглядова Miradouro dos Ingleses.<br>Безкоштовно, 1,5-2 год.<br>⚠️ Туалетів у парку нема (ресторан біля входу); прохолодно, часто туман. У неділю — ринок."}}, {"type": "Feature", "geometry": {"type": "Point", "coordinates": [-16.93801, 32.63661]}, "properties": {"name": "🎡 Ilhapark — батути (Lido)", "cat": "leisure", "info": "🔄 Запасне · 🌙 спокійне / вечір · 28 хв від Машіку<br>Батутний парк під дахом, з боків відкритий: батути, лазанки, кафе для батьків.<br>€3/год, €6 пів дня (дані блогу). Вік 3-12, в окремі дні — малі з батьками.<br>⚠️ Без броні майже не пустять: 935 719 370. На дощ."}}, {"type": "Feature", "geometry": {"type": "Point", "coordinates": [-16.90263, 32.67543]}, "properties": {"name": "🎡 Carros de cesto (сани Монте)", "cat": "leisure", "info": "👍 Варто · 🌅 ранок, активне · 25 хв від Машіку<br>Плетені сани 2 км вниз вулицями Монте, ~10 хв.<br><b>€30/€40/€60</b> за 1/2/3, лише готівка, пн-сб 09:00-18:00.<br>Десятирічній — так; <b>дворічній — ні</b> (до 40 км/год, без ременів). Хтось один з малою їде канаткою."}}, {"type": "Feature", "geometry": {"type": "Point", "coordinates": [-16.90283, 32.67364]}, "properties": {"name": "🎡 Monte Palace Tropical Garden", "cat": "leisure", "info": "⭐ <b>Обов'язково</b> · 🌅 ранок, активне · 24 хв від Машіку<br>Тропічний сад: ставки з коропами, пагоди, лебеді, азулежу.<br><b>€18 дорослий, до 14 безкоштовно</b>. Жовтень 09:00-18:00. 2-3 год.<br>⚠️ Схили й сходи — коляска лише головними доріжками. Вхід поруч з верхньою станцією канатки."}}, {"type": "Feature", "geometry": {"type": "Point", "coordinates": [-16.74056, 32.73584]}, "properties": {"name": "🎡 Museu da Baleia (Caniçal)", "cat": "leisure", "info": "👍 Варто · 🌙 спокійне / вечір · 8 хв від Машіку<br>Музей китобійного промислу — <b>є лише на Мадейрі</b>; кашалот у натуральну величину.<br>Вт-нд 10:00-18:00, <b>пн зачинено</b>. ~1,5 год.<br>€15 / €7,50 (6-11) за тарифом від 16.07.2026 (старі сайти: €10/€5). Для дощового дня."}}, {"type": "Feature", "geometry": {"type": "Point", "coordinates": [-17.20178, 32.75412]}, "properties": {"name": "🎡 Quinta Pedagógica dos Prazeres", "cat": "leisure", "info": "🔄 Запасне · 🌅 ранок, активне · 59 хв від Машіку<br>Ферма: кози, віслюки, екзотичні тварини, можна годувати; чайна з домашнім варенням.<br>Вхід ~€1.<br>⚠️ Крайній захід, ~1 год від Машіку; години в жовтні не перевірено. Лише разом з Ponta do Pargo."}}, {"type": "Feature", "geometry": {"type": "Point", "coordinates": [-17.16542, 32.86731]}, "properties": {"name": "🎡 Aquário da Madeira (Porto Moniz)", "cat": "leisure", "info": "🔄 Запасне · 🌅 ранок, активне · 67 хв від Машіку<br>Малий акваріум у форті: 12 резервуарів, 90 місцевих видів, головний на 500 тис. л (скати, акула).<br>€7 / €4 (5-14), щодня 10:00-18:00, 20-40 хв.<br>Після Oceanário — лише додаток до басейнів Porto Moniz, не окрема поїздка."}}, {"type": "Feature", "geometry": {"type": "Point", "coordinates": [-16.91385, 32.64412]}, "properties": {"name": "🎡 Museu CR7 (Фуншал)", "cat": "leisure", "info": "🔄 Запасне · 🌙 спокійне / вечір · 24 хв від Машіку<br>Трофеї Роналду (Золоті м'ячі), воскова фігура, статуя перед входом.<br>~€5 (офіційно не звірено), 45-60 хв.<br>⚠️ Дні роботи різняться по джерелах (пн-пт або пн-сб, 10:00-17:00). Лише якщо десятирічній цікаво."}}, {"type": "Feature", "geometry": {"type": "Point", "coordinates": [-16.91036, 32.64609]}, "properties": {"name": "🐬 Кити й дельфіни — Marina do Funchal", "cat": "leisure", "info": "⭐ <b>Обов'язково</b> · 🌅 ранок, активне · 24 хв від Машіку<br><b>VMT Madeira</b>: катамаран 3-4 год, €40/€20, 0-4 безкоштовно, сім'я 2+4 €100. <b>Bonita da Madeira</b>: вітрильник 3 год, €35, до 4 безкоштовно, 10:30/15:00.<br>⚠️ Lobosonda — тільки 5+. З малою — великий катамаран, не RIB."}}, {"type": "Feature", "geometry": {"type": "Point", "coordinates": [-16.7603, 32.71793]}, "properties": {"name": "🐬 Кити й дельфіни — Marina de Machico", "cat": "leisure", "info": "🔄 Запасне · 🌅 ранок, активне · 2 хв від Машіку<br>Scorpio Madeira: RIB-катер 2-2,5 год з біологом, 09:30 і 15:00, €54,50 / €37,50 (4-11).<br>⚠️ Швидкий RIB з дворічною — погана ідея: б'є на хвилях. Wind Birds звідси — лише квітень-вересень. Для малої краще катамаран з Фуншала."}}, {"type": "Feature", "geometry": {"type": "Point", "coordinates": [-16.89733, 32.64666]}, "properties": {"name": "💦 Complexo Balnear da Barreirinha", "cat": "leisure", "info": "🔄 Запасне · 🌙 спокійне / вечір · 23 хв від Машіку<br>Купальня біля Старого міста: солярій, спуск у море, бар, рятувальник цілий рік.<br>€6 / €2 (7-17), <b>до 6 безкоштовно</b>. Поза сезоном ~09:30-17:30.<br>⚠️ Басейну нема — море і галька; з малою лише в штиль і в аквашузах."}}, {"type": "Feature", "geometry": {"type": "Point", "coordinates": [-16.82706, 32.77375]}, "properties": {"name": "💦 Басейни Porto da Cruz", "cat": "leisure", "info": "👍 Варто · 🌙 спокійне / вечір · 13 хв від Машіку<br>Два солоні басейни на набережній — <b>дорослий і дитячий</b>, душі, бар.<br>Влітку 10:00-19:00, ціну не знайдено.<br>⚠️ Чи працює в жовтні — не перевірено. Північ: у шторм хвилі перехльостують басейни."}}, {"type": "Feature", "geometry": {"type": "Point", "coordinates": [-16.97733, 32.64731]}, "properties": {"name": "🏘️ Câmara de Lobos — рибальська бухта", "cat": "nature", "info": "⭐ <b>Обов'язково</b> · 🌙 спокійне / вечір · 30 хв від Машіку<br>Рибальське містечко: кольорові човни в бухті, місце, де малював Черчилль.<br>Безкоштовно, 1-1,5 год, набережна рівна — коляска ок.<br>Найкраще ввечері. ⚠️ Паркінг у центрі тісний."}}, {"type": "Feature", "geometry": {"type": "Point", "coordinates": [-16.97347, 32.65191]}, "properties": {"name": "👀 Pico da Torre (Câmara de Lobos)", "cat": "nature", "info": "🔄 Запасне · 🌙 спокійне / вечір · 29 хв від Машіку<br>Оглядова над Câmara de Lobos: бухта, Cabo Girão, Фуншал.<br>Безкоштовно, 15 хв, машиною до майданчика.<br>Зупинка на заході сонця по дорозі з Cabo Girão."}}, {"type": "Feature", "geometry": {"type": "Point", "coordinates": [-16.90062, 32.64792]}, "properties": {"name": "🏘️ Rua de Santa Maria — розписані двері", "cat": "nature", "info": "⭐ <b>Обов'язково</b> · 🌙 спокійне / вечір · 23 хв від Машіку<br>Найстаріша вулиця Фуншала: <b>розписані двері</b> (проєкт «arT of opEN doors»), бруківка, кафе.<br>Безкоштовно, ~1 год, найкраще ввечері.<br>Коляска проходить, але трясе. Поруч вег-кластер Sé."}}, {"type": "Feature", "geometry": {"type": "Point", "coordinates": [-16.89875, 32.64672]}, "properties": {"name": "🏘️ Forte de São Tiago (Фуншал)", "cat": "nature", "info": "🔄 Запасне · 🌙 спокійне / вечір · 23 хв від Машіку<br>Жовтий форт XVII ст. наприкінці Старого міста: фото, вид на море, поруч Barreirinha.<br>Ззовні безкоштовно, 15-20 хв.<br>Кінцева точка прогулянки Rua de Santa Maria."}}, {"type": "Feature", "geometry": {"type": "Point", "coordinates": [-16.90806, 32.64662]}, "properties": {"name": "🏘️ Набережна Avenida do Mar і марина", "cat": "nature", "info": "⭐ <b>Обов'язково</b> · 🌙 спокійне / вечір · 24 хв від Машіку<br>Рівна набережна від Praça do Povo до марини й парку Santa Catarina: лайнери, фонтани.<br>Безкоштовно, 1-2 год, <b>ідеально для коляски</b>.<br>Головна вечірня прогулянка острова. ⚠️ Паркінг — платні гаражі."}}, {"type": "Feature", "geometry": {"type": "Point", "coordinates": [-16.93941, 32.65866]}, "properties": {"name": "👀 Pico dos Barcelos", "cat": "nature", "info": "👍 Варто · 🌙 спокійне / вечір · 24 хв від Машіку<br>Оглядова над усім амфітеатром Фуншала, машиною до самого майданчика.<br>Безкоштовно, ~20 хв.<br>Одне з найкращих місць на захід сонця й вечірні вогні міста."}}, {"type": "Feature", "geometry": {"type": "Point", "coordinates": [-16.8706, 32.6453]}, "properties": {"name": "👀 Miradouro do Pináculo", "cat": "nature", "info": "👍 Варто · 🌙 спокійне / вечір · 17 хв від Машіку<br>Оглядова на скелі зі сходу від Фуншала: вся бухта й місто.<br>Безкоштовно, 15 хв.<br>Зупинка ввечері по дорозі Фуншал → Машіку. ⚠️ Під'їзд вузькими крутими вуличками."}}, {"type": "Feature", "geometry": {"type": "Point", "coordinates": [-16.82566, 32.74733]}, "properties": {"name": "👀 Miradouro da Portela", "cat": "nature", "info": "👍 Варто · 🌅 ранок, активне · 11 хв від Машіку<br>Гірський перевал з видом на скелю Penha d'Águia і Porto da Cruz.<br>Безкоштовно, 15 хв.<br>Зупинка по дорозі Машіку → Porto da Cruz або Ribeiro Frio. ⚠️ Часто в хмарі — краще зранку."}}, {"type": "Feature", "geometry": {"type": "Point", "coordinates": [-16.82776, 32.77291]}, "properties": {"name": "🏘️ Porto da Cruz", "cat": "nature", "info": "👍 Варто · 🌙 спокійне / вечір · 13 хв від Машіку<br>Селище на півночі під скелею Penha d'Águia: набережна, старий цукровий млин (роблять ром), басейни.<br>1-2 год, ~12 хв від Машіку.<br>⚠️ Чи млин відкритий для відвідин у жовтні — не перевірено."}}, {"type": "Feature", "geometry": {"type": "Point", "coordinates": [-16.84936, 32.79425]}, "properties": {"name": "👀 Miradouro do Guindaste (скло над морем)", "cat": "nature", "info": "👍 Варто · 🌅 ранок, активне · 17 хв від Машіку<br>Дві скляні платформи над океаном: північне узбережжя, Penha d'Águia, Ponta de São Lourenço.<br>Безкоштовно, 20 хв, туалети.<br>Поєднати з Santana. ⚠️ На склі малу тримати на руках."}}, {"type": "Feature", "geometry": {"type": "Point", "coordinates": [-16.9062, 32.83455]}, "properties": {"name": "👀 Farol de São Jorge", "cat": "nature", "info": "🔄 Запасне · 🌅 ранок, активне · 28 хв від Машіку<br>Маяк на обриві над північним узбережжям.<br>Безкоштовно, 15 хв.<br>Коротка зупинка після Santana. ⚠️ Вітряно."}}, {"type": "Feature", "geometry": {"type": "Point", "coordinates": [-16.93807, 32.80696]}, "properties": {"name": "🌿 Levada do Rei (PR18)", "cat": "nature", "info": "🔄 Запасне · 🌅 ранок, активне · 46 хв від Машіку<br>Левада через лаврові ліси до струмка Ribeiro Bonito.<br>Повністю ~3,5 год туди-назад, €4,50 онлайн (Simplifica).<br>З малою — лише в ергорюкзаку, 30-40 хв і назад. ⚠️ Місцями обриви."}}, {"type": "Feature", "geometry": {"type": "Point", "coordinates": [-17.0479, 32.80883]}, "properties": {"name": "🏘️ São Vicente", "cat": "nature", "info": "👍 Варто · 🌅 ранок, активне · 50 хв від Машіку<br>Охайне селище на півночі; <b>каплиця, вирізана в скелі</b> біля гирла річки, чорна галька.<br>~1 год.<br>⚠️ Печери вулканізму закриті на невизначений строк. Поєднати з Encumeada."}}, {"type": "Feature", "geometry": {"type": "Point", "coordinates": [-17.01884, 32.75428]}, "properties": {"name": "👀 Boca da Encumeada", "cat": "nature", "info": "👍 Варто · 🌅 ранок, активне · 48 хв від Машіку<br>Перевал між півднем і північчю: в ясну погоду видно обидва береги.<br>Безкоштовно, 15 хв.<br>По дорозі на São Vicente / Paul da Serra. ⚠️ Після обіду часто хмари."}}, {"type": "Feature", "geometry": {"type": "Point", "coordinates": [-17.09732, 32.75772]}, "properties": {"name": "👀 Paul da Serra — плато", "cat": "nature", "info": "👍 Варто · 🌅 ранок, активне · 63 хв від Машіку<br>Високе рівне плато над хмарами: пасовища, корови, вітряки.<br>Безкоштовно, 30 хв.<br>Через нього їдуть на Rabaçal і Fanal. ⚠️ Холодно й туман — взяти кофти."}}, {"type": "Feature", "geometry": {"type": "Point", "coordinates": [-17.26307, 32.81393]}, "properties": {"name": "👀 Farol da Ponta do Pargo — захід сонця", "cat": "nature", "info": "🔄 Запасне · 🌅 ранок, активне · 70 хв від Машіку<br>Маяк на крайньому заході над високим обривом — <b>найкращий захід сонця острова</b>.<br>Безкоштовно, 30 хв.<br>⚠️ ~70 хв від Машіку — тільки в «західний» день. Поруч O Forno (вег не перевірено)."}}, {"type": "Feature", "geometry": {"type": "Point", "coordinates": [-17.10391, 32.67833]}, "properties": {"name": "🏘️ Ponta do Sol", "cat": "nature", "info": "👍 Варто · 🌅 ранок, активне · 43 хв від Машіку<br>Сонячне селище з набережною і пірсом, галька, кафе.<br>1-1,5 год, набережною з коляскою ок.<br>Гарний захід сонця; поєднати з Madalena do Mar і Calheta."}}, {"type": "Feature", "geometry": {"type": "Point", "coordinates": [-17.13018, 32.69771]}, "properties": {"name": "🏘️ Madalena do Mar", "cat": "nature", "info": "🔄 Запасне · 🌅 ранок, активне · 46 хв від Машіку<br>Крихітне селище між бананами й морем, галькова затока.<br>30-40 хв.<br>Лише зупинка між Ponta do Sol і Calheta."}}, {"type": "Feature", "geometry": {"type": "Point", "coordinates": [-16.76485, 32.71762]}, "properties": {"name": "🏘️ Forte do Amparo (Машіку)", "cat": "nature", "info": "👍 Варто · 🌙 спокійне / вечір · 1 хв від Машіку<br>Трикутний жовтий форт XVIII ст. прямо на набережній, поруч пляж і майданчик.<br>Ззовні безкоштовно, 10 хв.<br>Вечірнє коло: форт → Banda d'Além → Capela dos Milagres."}}, {"type": "Feature", "geometry": {"type": "Point", "coordinates": [-16.76417, 32.71908]}, "properties": {"name": "🏘️ Capela dos Milagres (Машіку)", "cat": "nature", "info": "👍 Варто · 🌙 спокійне / вечір · 0 хв від Машіку<br>Одна з найстаріших каплиць острова, через бухту від центру.<br>10-15 хв, пішки рівною набережною.<br>⚠️ Чи відчинено всередину — не перевірено."}}, {"type": "Feature", "geometry": {"type": "Point", "coordinates": [-16.75913, 32.72383]}, "properties": {"name": "👀 Pico do Facho (Машіку)", "cat": "nature", "info": "👍 Варто · 🌙 спокійне / вечір · 7 хв від Машіку<br>Пагорб ~320 м над Машіку: уся бухта, злітна смуга, Ponta de São Lourenço.<br>Машиною до верху, 15-20 хв.<br>Звідси видно зліт літаків — дітям видовище. ⚠️ Вузька крута дорога."}}, {"type": "Feature", "geometry": {"type": "Point", "coordinates": [-16.76484, 32.71299]}, "properties": {"name": "👀 Miradouro Francisco Álvares de Nóbrega", "cat": "nature", "info": "🔄 Запасне · 🌙 спокійне / вечір · 5 хв від Машіку<br>Оглядова над Машіку: бухта з висоти і літаки на заході на посадку.<br>Безкоштовно, 10 хв.<br>⚠️ Паркінг на місці не перевірено."}}, {"type": "Feature", "geometry": {"type": "Point", "coordinates": [-16.7086, 32.75138]}, "properties": {"name": "👀 Ponta do Rosto", "cat": "nature", "info": "👍 Варто · 🌙 спокійне / вечір · 13 хв від Машіку<br>Оглядова на півострові São Lourenço: скелі, північний берег з прибоєм, Porto Santo в ясну погоду.<br>Безкоштовно, 15 хв від машини.<br>Вид без походу — заміна стежці з малою. ⚠️ Дуже вітряно, малу за руку."}}, {"type": "Feature", "geometry": {"type": "Point", "coordinates": [-16.76081, 32.73495]}, "properties": {"name": "🌿 Levada do Caniçal (старт біля тунелю)", "cat": "nature", "info": "👍 Варто · 🌅 ранок, активне · 5 хв від Машіку<br><b>Найрівніша левада сходу</b>: +11 м на 3,8 км, без тунелів і обривів, вид на Машіку й Caniçal.<br>Туди-назад ~3 год, можна 30-60 хв. Безкоштовно.<br>⚠️ Не для коляски (ґрунт); мало тіні — зранку."}}, {"type": "Feature", "geometry": {"type": "Point", "coordinates": [-16.79421, 32.68927]}, "properties": {"name": "🏘️ Santa Cruz — набережна", "cat": "nature", "info": "👍 Варто · 🌙 спокійне / вечір · 8 хв від Машіку<br>Тихе містечко: рівна набережна з пальмами, ринок, церква XVI ст., кафе.<br>1-1,5 год ввечері, коляска ок.<br>Поруч Palmeiras і майданчик. ⚠️ Літаки заходять низько — гучно."}}, {"type": "Feature", "geometry": {"type": "Point", "coordinates": [-16.78287, 32.69266]}, "properties": {"name": "👀 Літаки над головою (Santa Cruz)", "cat": "nature", "info": "🔄 Запасне · 🌙 спокійне / вечір · 6 хв від Машіку<br>Місце біля смуги, де літаки йдуть на посадку просто над головою.<br>Безкоштовно, 20-30 хв.<br>Десятирічній — видовище; малій закрити вуха. ⚠️ Прильоти дивитись у Flightradar."}}, {"type": "Feature", "geometry": {"type": "Point", "coordinates": [-16.9074118, 32.6496531]}, "properties": {"name": "🍽️ Fábrica Santo António (Funchal)", "cat": "resto", "info": "Фабрика-музей 1893 р.: бOлo de mel, печиво, компоти. <b>🪑 йти вживу</b> — «йти за запахом».<br>Пн-пт 9-19, сб 9-13. <b>Закрито нд.</b>"}}, {"type": "Feature", "geometry": {"type": "Point", "coordinates": [-16.7642873, 32.7176927]}, "properties": {"name": "🍽️ Gelati Machico (Machico)", "cat": "resto", "info": "Італійська рецептура морозива, 4.6 (1207 відгуків). <b>🪑 йти вживу</b> — сімейний рітуал на набережній Машіку."}}, {"type": "Feature", "geometry": {"type": "Point", "coordinates": [-16.853889, 32.6513849]}, "properties": {"name": "🍽️ Peter's Poncha (Caniço)", "cat": "resto", "info": "Понча, сендвічі, тости. <b>🛵 доставка</b> (Uber Eats, зона Santa Cruz) + <b>🪑 йти вживу</b>. Понча без алкоголю — <b>не перевірено</b>, питати на місці."}}, {"type": "Feature", "geometry": {"type": "Point", "coordinates": [-16.9145038, 32.6478872]}, "properties": {"name": "🍽️ Prova La Pasta (Funchal, La Vie)", "cat": "resto", "info": "Італійська паста/салати, є вегетаріанські. <b>🛵 доставка</b> Uber Eats, з'являється в зоні Santa Cruz. <b>🥡 з собою</b> теж є."}}]}