{"type": "FeatureCollection", "features": [{"type": "Feature", "geometry": {"type": "Point", "coordinates": [-9.34621, 38.69103]}, "properties": {"name": "EB Santo António (Parede)", "cat": "pub", "info": "Наша зона (AE Parede). básica +0,3. Рейтинг #1 у кільці (60). 0,35км."}}, {"type": "Feature", "geometry": {"type": "Point", "coordinates": [-9.35316, 38.6966]}, "properties": {"name": "ES Fernando Lopes Graça (Parede)", "cat": "pub", "info": "Sede AE Parede. Секундарій #270."}}, {"type": "Feature", "geometry": {"type": "Point", "coordinates": [-9.33706, 38.69824]}, "properties": {"name": "EBS de Carcavelos", "cat": "pub", "info": "Найкраща básica концелю (+3,0). Секундарій #319. Зона 🟢."}}, {"type": "Feature", "geometry": {"type": "Point", "coordinates": [-9.38517, 38.70705]}, "properties": {"name": "EB São João do Estoril (Galiza)", "cat": "pub", "info": "básica −19,9 НАЙГІРША. Секундарій #157. Зона 🟡/🔴."}}, {"type": "Feature", "geometry": {"type": "Point", "coordinates": [-9.35128, 38.706]}, "properties": {"name": "EBS Matilde Rosa Araújo", "cat": "pub", "info": "Аню призначили сюди. básica +2,3, секундарій #539 дно. Зона SDR 🔴."}}, {"type": "Feature", "geometry": {"type": "Point", "coordinates": [-9.3372, 38.7086]}, "properties": {"name": "EBS Frei Gonçalo de Azevedo", "cat": "pub", "info": "básica +1,8, секундарій #380. Соцжитло в catchment. 🔴. (координата приблизна)"}}, {"type": "Feature", "geometry": {"type": "Point", "coordinates": [-9.32351, 38.69698]}, "properties": {"name": "EB Conde de Oeiras", "cat": "pub", "info": "Oeiras, секундарій #122 найсильніший ланцюг. Крос-концельо=низький пріоритет."}}, {"type": "Feature", "geometry": {"type": "Point", "coordinates": [-9.34421, 38.69135]}, "properties": {"name": "Colégio Marista de Carcavelos", "cat": "priv", "info": "Приватна, #40 країни, ~€459/міс 2º ciclo."}}, {"type": "Feature", "geometry": {"type": "Point", "coordinates": [-9.33579, 38.68385]}, "properties": {"name": "St. Julian's School", "cat": "intl", "info": "Міжнародна (UK), €12,7-30к/рік. Кластер Carcavelos."}}, {"type": "Feature", "geometry": {"type": "Point", "coordinates": [-9.3436, 38.7205]}, "properties": {"name": "St. Dominic's Intl School", "cat": "intl", "info": "Міжнародна, S.D.Rana. (координата приблизна)"}}]}