{"type": "FeatureCollection", "features": [{"type": "Feature", "geometry": {"type": "Point", "coordinates": [-9.33436, 38.70467]}, "properties": {"local": "Quinta dos Gafanhotos", "freg": "U.F. Carcavelos e Parede", "fogos": 24, "bldg": 2}}, {"type": "Feature", "geometry": {"type": "Point", "coordinates": [-9.391, 38.73538]}, "properties": {"local": "Alcoitão", "freg": "Alcabideche", "fogos": 199, "bldg": 33}}, {"type": "Feature", "geometry": {"type": "Point", "coordinates": [-9.38671, 38.70789]}, "properties": {"local": "São João do Estoril", "freg": "U.F. Cascais e Estoril", "fogos": 197, "bldg": 31}}, {"type": "Feature", "geometry": {"type": "Point", "coordinates": [-9.42205, 38.71156]}, "properties": {"local": "Fontaínhas", "freg": "U.F. Cascais e Estoril", "fogos": 87, "bldg": 41}}, {"type": "Feature", "geometry": {"type": "Point", "coordinates": [-9.42292, 38.71573]}, "properties": {"local": "Alvide", "freg": "Alcabideche", "fogos": 231, "bldg": 197}}, {"type": "Feature", "geometry": {"type": "Point", "coordinates": [-9.41563, 38.7154]}, "properties": {"local": "Pai do Vento", "freg": "Alcabideche", "fogos": 52, "bldg": 9}}, {"type": "Feature", "geometry": {"type": "Point", "coordinates": [-9.3414, 38.737]}, "properties": {"local": "Trajouce", "freg": "São Domingos de Rana", "fogos": 50, "bldg": 7}}, {"type": "Feature", "geometry": {"type": "Point", "coordinates": [-9.34111, 38.72749]}, "properties": {"local": "Mato Cheirinhos", "freg": "São Domingos de Rana", "fogos": 165, "bldg": 12}}, {"type": "Feature", "geometry": {"type": "Point", "coordinates": [-9.3271, 38.72671]}, "properties": {"local": "Abóboda", "freg": "São Domingos de Rana", "fogos": 153, "bldg": 14}}, {"type": "Feature", "geometry": {"type": "Point", "coordinates": [-9.35125, 38.71685]}, "properties": {"local": "Tires", "freg": "São Domingos de Rana", "fogos": 78, "bldg": 15}}, {"type": "Feature", "geometry": {"type": "Point", "coordinates": [-9.36194, 38.69754]}, "properties": {"local": "Jardins da Parede", "freg": "U.F. Carcavelos e Parede", "fogos": 26, "bldg": 3}}, {"type": "Feature", "geometry": {"type": "Point", "coordinates": [-9.44135, 38.7035]}, "properties": {"local": "Torre", "freg": "U.F. Cascais e Estoril", "fogos": 297, "bldg": 51}}, {"type": "Feature", "geometry": {"type": "Point", "coordinates": [-9.35152, 38.70819]}, "properties": {"local": "Matarraque", "freg": "São Domingos de Rana", "fogos": 75, "bldg": 10}}, {"type": "Feature", "geometry": {"type": "Point", "coordinates": [-9.38957, 38.7458]}, "properties": {"local": "Bairro da Cruz Vermelha", "freg": "Alcabideche", "fogos": 142, "bldg": 30}}, {"type": "Feature", "geometry": {"type": "Point", "coordinates": [-9.43092, 38.7163]}, "properties": {"local": "Bairro  Santana", "freg": "U.F. Cascais e Estoril", "fogos": 56, "bldg": 34}}, {"type": "Feature", "geometry": {"type": "Point", "coordinates": [-9.35052, 38.69994]}, "properties": {"local": "Rana", "freg": "São Domingos de Rana", "fogos": 23, "bldg": 11}}, {"type": "Feature", "geometry": {"type": "Point", "coordinates": [-9.37417, 38.73289]}, "properties": {"local": "Manique de Baixo", "freg": "Alcabideche", "fogos": 106, "bldg": 14}}, {"type": "Feature", "geometry": {"type": "Point", "coordinates": [-9.34484, 38.70352]}, "properties": {"local": "Zambujal", "freg": "São Domingos de Rana", "fogos": 49, "bldg": 7}}, {"type": "Feature", "geometry": {"type": "Point", "coordinates": [-9.35403, 38.70127]}, "properties": {"local": "Madorna", "freg": "São Domingos de Rana", "fogos": 66, "bldg": 28}}, {"type": "Feature", "geometry": {"type": "Point", "coordinates": [-9.37976, 38.74599]}, "properties": {"local": "Adroana", "freg": "Alcabideche", "fogos": 130, "bldg": 19}}, {"type": "Feature", "geometry": {"type": "Point", "coordinates": [-9.34127, 38.71091]}, "properties": {"local": "São Domingos de Rana", "freg": "São Domingos de Rana", "fogos": 97, "bldg": 34}}, {"type": "Feature", "geometry": {"type": "Point", "coordinates": [-9.32921, 38.7173]}, "properties": {"local": "Outeiro de Polima", "freg": "São Domingos de Rana", "fogos": 90, "bldg": 9}}, {"type": "Feature", "geometry": {"type": "Point", "coordinates": [-9.38184, 38.72463]}, "properties": {"local": "Pau Gordo", "freg": "Alcabideche", "fogos": 37, "bldg": 4}}, {"type": "Feature", "geometry": {"type": "Point", "coordinates": [-9.40297, 38.73538]}, "properties": {"local": "Alcabideche", "freg": "Alcabideche", "fogos": 59, "bldg": 8}}, {"type": "Feature", "geometry": {"type": "Point", "coordinates": [-9.37453, 38.72496]}, "properties": {"local": "Bicesse", "freg": "Alcabideche", "fogos": 75, "bldg": 6}}, {"type": "Feature", "geometry": {"type": "Point", "coordinates": [-9.35406, 38.69657]}, "properties": {"local": "Bairro Alentejano", "freg": "U.F. Carcavelos e Parede", "fogos": 1, "bldg": 1}}, {"type": "Feature", "geometry": {"type": "Point", "coordinates": [-9.33966, 38.70012]}, "properties": {"local": "Checlos", "freg": "U.F. Carcavelos e Parede", "fogos": 27, "bldg": 4}}, {"type": "Feature", "geometry": {"type": "Point", "coordinates": [-9.35272, 38.69174]}, "properties": {"local": "Parede", "freg": "U.F. Carcavelos e Parede", "fogos": 7, "bldg": 8}}, {"type": "Feature", "geometry": {"type": "Point", "coordinates": [-9.33322, 38.68921]}, "properties": {"local": "Carcavelos", "freg": "U.F. Carcavelos e Parede", "fogos": 5, "bldg": 5}}, {"type": "Feature", "geometry": {"type": "Point", "coordinates": [-9.43291, 38.70756]}, "properties": {"local": "Pampilheira", "freg": "U.F. Cascais e Estoril", "fogos": 12, "bldg": 13}}, {"type": "Feature", "geometry": {"type": "Point", "coordinates": [-9.43677, 38.69961]}, "properties": {"local": "Bairro do Rosário", "freg": "U.F. Cascais e Estoril", "fogos": 14, "bldg": 9}}, {"type": "Feature", "geometry": {"type": "Point", "coordinates": [-9.42672, 38.70315]}, "properties": {"local": "Cascais", "freg": "U.F. Cascais e Estoril", "fogos": 24, "bldg": 18}}, {"type": "Feature", "geometry": {"type": "Point", "coordinates": [-9.32486, 38.70434]}, "properties": {"local": "Arneiro", "freg": "U.F. Carcavelos e Parede", "fogos": 41, "bldg": 2}}, {"type": "Feature", "geometry": {"type": "Point", "coordinates": [-9.31968, 38.72637]}, "properties": {"local": "Polima", "freg": "São Domingos de Rana", "fogos": 39, "bldg": 4}}, {"type": "Feature", "geometry": {"type": "Point", "coordinates": [-9.40965, 38.72077]}, "properties": {"local": "Amoreira", "freg": "Alcabideche", "fogos": 7, "bldg": 8}}, {"type": "Feature", "geometry": {"type": "Point", "coordinates": [-9.34949, 38.69213]}, "properties": {"local": "Bairro das Caixas", "freg": "U.F. Carcavelos e Parede", "fogos": 9, "bldg": 8}}, {"type": "Feature", "geometry": {"type": "Point", "coordinates": [-9.33709, 38.70371]}, "properties": {"local": "São Miguel das Encostas", "freg": "U.F. Carcavelos e Parede", "fogos": 12, "bldg": 1}}, {"type": "Feature", "geometry": {"type": "Point", "coordinates": [-9.35837, 38.7053]}, "properties": {"local": "Penedo", "freg": "São Domingos de Rana", "fogos": 2, "bldg": 2}}, {"type": "Feature", "geometry": {"type": "Point", "coordinates": [-9.31376, 38.73867]}, "properties": {"local": "Talaíde", "freg": "São Domingos de Rana", "fogos": 1, "bldg": 1}}, {"type": "Feature", "geometry": {"type": "Point", "coordinates": [-9.36335, 38.7123]}, "properties": {"local": "Caparide", "freg": "São Domingos de Rana", "fogos": 1, "bldg": 1}}, {"type": "Feature", "geometry": {"type": "Point", "coordinates": [-9.42219, 38.70776]}, "properties": {"local": "Outeiro da Vela", "freg": "U.F. Cascais e Estoril", "fogos": 1, "bldg": 1}}, {"type": "Feature", "geometry": {"type": "Point", "coordinates": [-9.43515, 38.7175]}, "properties": {"local": "Cobre", "freg": "U.F. Cascais e Estoril", "fogos": 1, "bldg": 1}}, {"type": "Feature", "geometry": {"type": "Point", "coordinates": [-9.37607, 38.70993]}, "properties": {"local": "Livramento", "freg": "U.F. Cascais e Estoril", "fogos": 1, "bldg": 1}}, {"type": "Feature", "geometry": {"type": "Point", "coordinates": [-9.36606, 38.70266]}, "properties": {"local": "Murtal", "freg": "U.F. Carcavelos e Parede", "fogos": 1, "bldg": 1}}, {"type": "Feature", "geometry": {"type": "Point", "coordinates": [-9.34414, 38.68901]}, "properties": {"local": "Bairro das Marianas", "freg": "U.F. Carcavelos e Parede", "fogos": 1, "bldg": 1}}, {"type": "Feature", "geometry": {"type": "Point", "coordinates": [-9.34645, 38.69438]}, "properties": {"local": "Rebelva", "freg": "U.F. Carcavelos e Parede", "fogos": 1, "bldg": 1}}, {"type": "Feature", "geometry": {"type": "Point", "coordinates": [-9.34278, 38.69436]}, "properties": {"local": "Quinta do Lameiro", "freg": "U.F. Carcavelos e Parede", "fogos": 2, "bldg": 2}}, {"type": "Feature", "geometry": {"type": "Point", "coordinates": [-9.39348, 38.70585]}, "properties": {"local": "Estoril", "freg": "U.F. Cascais e Estoril", "fogos": 1, "bldg": 2}}]}