{"type": "FeatureCollection", "features": [{"type": "Feature", "geometry": {"type": "Point", "coordinates": [-9.352, 38.6928]}, "properties": {"name": "Parede", "rating": "green", "info": "🟢 НАЙКРАЩА: наша зона AE Parede, мало соцжитла (7 fogos), básica ok. Мінус: садки вузько, коляскова пастка до пляжу."}}, {"type": "Feature", "geometry": {"type": "Point", "coordinates": [-9.33547, 38.69211]}, "properties": {"name": "Carcavelos", "rating": "green", "info": "🟢 НАЙКРАЩА: найкраща básica (+3,0), соцжитло 5 fogos, кластер міжнар. шкіл."}}, {"type": "Feature", "geometry": {"type": "Point", "coordinates": [-9.31231, 38.69258]}, "properties": {"name": "Oeiras (centro)", "rating": "green", "info": "🟢 НАЙКРАЩА (довга): найсильніший ланцюг шкіл #122. Крос-концельо=низький пріоритет матрікули."}}, {"type": "Feature", "geometry": {"type": "Point", "coordinates": [-9.38627, 38.70136]}, "properties": {"name": "São João do Estoril", "rating": "yellow", "info": "🟡 узбережжя+мало соцжитла, АЛЕ básica −19,9 найгірша + Fim do Mundo 197 fogos."}}, {"type": "Feature", "geometry": {"type": "Point", "coordinates": [-9.34174, 38.70157]}, "properties": {"name": "São Domingos de Rana", "rating": "red", "info": "🔴 найбільше соцжитла концелю (889 fogos, 14 байру), секундарій дно."}}, {"type": "Feature", "geometry": {"type": "Point", "coordinates": [-9.24632, 38.72553]}, "properties": {"name": "Carnaxide", "rating": "red", "info": "🔴 пастка: школи сильні, АЛЕ соцкластер+стрілянини (Portela, Barronhos)."}}]}