{"type": "FeatureCollection", "features": [{"type": "Feature", "geometry": {"type": "Polygon", "coordinates": [[[-9.4838, 38.7573], [-9.4786, 38.7561], [-9.479, 38.7545], [-9.4763, 38.7548], [-9.4773, 38.7531], [-9.4741, 38.7535], [-9.4731, 38.7515], [-9.4744, 38.7508], [-9.4719, 38.75], [-9.4717, 38.7481], [-9.4733, 38.748], [-9.4717, 38.7469], [-9.4733, 38.744], [-9.472, 38.7414], [-9.4738, 38.7403], [-9.4721, 38.7367], [-9.4737, 38.7334], [-9.4695, 38.7318], [-9.464, 38.7337], [-9.4619, 38.7331], [-9.4563, 38.7355], [-9.4549, 38.738], [-9.4518, 38.7381], [-9.4496, 38.7407], [-9.4499, 38.7388], [-9.4433, 38.7262], [-9.4408, 38.726], [-9.4394, 38.7233], [-9.4418, 38.722], [-9.4345, 38.7232], [-9.4318, 38.7207], [-9.4304, 38.7217], [-9.4316, 38.7192], [-9.4287, 38.7164], [-9.4295, 38.7145], [-9.4272, 38.714], [-9.4271, 38.712], [-9.4245, 38.7135], [-9.4225, 38.7125], [-9.4219, 38.7138], [-9.4216, 38.712], [-9.4184, 38.7128], [-9.4179, 38.7112], [-9.4106, 38.7105], [-9.4056, 38.7135], [-9.4049, 38.7125], [-9.4053, 38.7146], [-9.4075, 38.716], [-9.4086, 38.7242], [-9.4056, 38.7254], [-9.4042, 38.7239], [-9.3986, 38.7235], [-9.3977, 38.7273], [-9.3933, 38.726], [-9.3863, 38.7197], [-9.3839, 38.7205], [-9.3772, 38.7184], [-9.3779, 38.722], [-9.3731, 38.7168], [-9.3713, 38.717], [-9.3698, 38.7188], [-9.3673, 38.7189], [-9.3661, 38.7304], [-9.3623, 38.729], [-9.3605, 38.7309], [-9.359, 38.7381], [-9.3596, 38.7399], [-9.3626, 38.7386], [-9.3642, 38.7403], [-9.3662, 38.7396], [-9.37, 38.747], [-9.3723, 38.746], [-9.3786, 38.7495], [-9.3821, 38.7579], [-9.3886, 38.7556], [-9.3945, 38.7555], [-9.3997, 38.7529], [-9.4034, 38.7573], [-9.4056, 38.7565], [-9.4065, 38.7579], [-9.4112, 38.759], [-9.4083, 38.7601], [-9.4102, 38.7617], [-9.4128, 38.7602], [-9.4131, 38.7585], [-9.4168, 38.7581], [-9.4189, 38.759], [-9.4227, 38.7659], [-9.4389, 38.767], [-9.4389, 38.7683], [-9.4409, 38.769], [-9.4433, 38.7674], [-9.4629, 38.7683], [-9.4736, 38.7668], [-9.4838, 38.7573]]]}, "properties": {"name": "Alcabideche", "rating": "yellow", "info": "🟡 СЕРЕДНЯ: школи сильні (Ibn Mucana+2,4), АЛЕ 1038 fogos соцжитла + далеко від океану."}}, {"type": "Feature", "geometry": {"type": "Polygon", "coordinates": [[[-9.3201, 38.7077], [-9.323, 38.7127], [-9.32, 38.7118], [-9.3188, 38.714], [-9.317, 38.7143], [-9.3178, 38.7156], [-9.3166, 38.7176], [-9.3148, 38.7177], [-9.3162, 38.7279], [-9.3189, 38.7302], [-9.3111, 38.7349], [-9.3085, 38.7445], [-9.312, 38.7449], [-9.3206, 38.7407], [-9.3245, 38.7462], [-9.324, 38.7482], [-9.33, 38.7521], [-9.3323, 38.7514], [-9.3359, 38.7467], [-9.339, 38.7471], [-9.3457, 38.7449], [-9.3494, 38.7464], [-9.3501, 38.7444], [-9.3547, 38.7411], [-9.3596, 38.7399], [-9.3603, 38.7313], [-9.3623, 38.729], [-9.3661, 38.7304], [-9.3659, 38.7256], [-9.3673, 38.725], [-9.3684, 38.7158], [-9.3666, 38.712], [-9.3704, 38.7061], [-9.3613, 38.7054], [-9.3556, 38.7024], [-9.3526, 38.6955], [-9.3499, 38.6936], [-9.3417, 38.6953], [-9.3407, 38.7017], [-9.3368, 38.7012], [-9.3381, 38.7033], [-9.3396, 38.7032], [-9.3345, 38.7073], [-9.3276, 38.7078], [-9.3232, 38.7038], [-9.3228, 38.7059], [-9.3193, 38.7067], [-9.3201, 38.7077]]]}, "properties": {"name": "São Domingos de Rana", "rating": "red", "info": "🔴 УНИКАТИ: найбільше соцжитла концелю (889 fogos, 14 байру), секундарій дно."}}, {"type": "Feature", "geometry": {"type": "Polygon", "coordinates": [[[-9.3232, 38.7038], [-9.3276, 38.7078], [-9.3345, 38.7073], [-9.3396, 38.7032], [-9.3381, 38.7033], [-9.3368, 38.7012], [-9.3407, 38.7017], [-9.3417, 38.6953], [-9.3499, 38.6936], [-9.3526, 38.6955], [-9.3551, 38.7019], [-9.3613, 38.7054], [-9.3704, 38.7061], [-9.373, 38.7012], [-9.3692, 38.6999], [-9.3697, 38.6983], [-9.367, 38.6992], [-9.3693, 38.6948], [-9.3668, 38.6937], [-9.3683, 38.6928], [-9.3584, 38.6863], [-9.3501, 38.6841], [-9.3468, 38.6807], [-9.3414, 38.6815], [-9.3273, 38.6759], [-9.3248, 38.6771], [-9.3231, 38.6812], [-9.3245, 38.6824], [-9.3253, 38.6882], [-9.3266, 38.6882], [-9.329, 38.6918], [-9.3297, 38.6977], [-9.3193, 38.6996], [-9.3232, 38.7038]]]}, "properties": {"name": "União das freguesias de Carcavelos e Parede", "rating": "green", "info": "🟢 НАЙКРАЩА: узбережжя, мало соцжитла (157 fogos), EBS Carcavelos +3,0 (найкраща básica). Наша зона."}}, {"type": "Feature", "geometry": {"type": "Polygon", "coordinates": [[[-9.4866, 38.7093], [-9.4826, 38.7052], [-9.4797, 38.705], [-9.4805, 38.704], [-9.4775, 38.7018], [-9.475, 38.7022], [-9.467, 38.6991], [-9.4604, 38.6951], [-9.4453, 38.6945], [-9.4397, 38.6958], [-9.4302, 38.6899], [-9.4301, 38.6908], [-9.4268, 38.6894], [-9.4207, 38.6901], [-9.4214, 38.6917], [-9.4179, 38.69], [-9.4132, 38.6938], [-9.4183, 38.6941], [-9.42, 38.6964], [-9.4178, 38.6971], [-9.4184, 38.699], [-9.4119, 38.7016], [-9.4085, 38.7011], [-9.4061, 38.7036], [-9.3993, 38.7026], [-9.3989, 38.701], [-9.398, 38.7021], [-9.392, 38.702], [-9.3878, 38.699], [-9.3733, 38.6938], [-9.3725, 38.6921], [-9.3713, 38.6937], [-9.3683, 38.6928], [-9.3668, 38.6937], [-9.3693, 38.6948], [-9.367, 38.6992], [-9.3697, 38.6983], [-9.3692, 38.6999], [-9.373, 38.7012], [-9.3716, 38.7054], [-9.369, 38.7071], [-9.3666, 38.712], [-9.3684, 38.7157], [-9.3677, 38.7185], [-9.3698, 38.7188], [-9.3731, 38.7168], [-9.3779, 38.722], [-9.3772, 38.7184], [-9.3839, 38.7205], [-9.3863, 38.7197], [-9.3888, 38.723], [-9.3977, 38.7273], [-9.3986, 38.7235], [-9.4042, 38.7239], [-9.4056, 38.7254], [-9.4086, 38.7242], [-9.4075, 38.716], [-9.4053, 38.7146], [-9.4049, 38.7125], [-9.4056, 38.7135], [-9.4106, 38.7105], [-9.4179, 38.7112], [-9.4184, 38.7128], [-9.4216, 38.712], [-9.4219, 38.7138], [-9.4225, 38.7125], [-9.4245, 38.7135], [-9.4271, 38.712], [-9.4272, 38.714], [-9.4295, 38.7145], [-9.4287, 38.7164], [-9.4316, 38.7192], [-9.4304, 38.7217], [-9.4318, 38.7207], [-9.4345, 38.7232], [-9.4418, 38.722], [-9.4394, 38.7233], [-9.4408, 38.726], [-9.4433, 38.7262], [-9.4499, 38.7388], [-9.4496, 38.7407], [-9.4518, 38.7381], [-9.4549, 38.738], [-9.4563, 38.7355], [-9.4619, 38.7331], [-9.464, 38.7337], [-9.4695, 38.7318], [-9.4737, 38.7334], [-9.4754, 38.7292], [-9.4771, 38.7287], [-9.4761, 38.7271], [-9.4773, 38.7244], [-9.4798, 38.723], [-9.479, 38.7204], [-9.4843, 38.7153], [-9.4866, 38.7093]]]}, "properties": {"name": "União das freguesias de Cascais e Estoril", "rating": "yellow", "info": "🟡 СЕРЕДНЯ: узбережжя, АЛЕ básica São João −19,9 слабка + соцжитло Torre/Fim do Mundo."}}, {"type": "Feature", "geometry": {"type": "Polygon", "coordinates": [[[-9.2731, 38.7486], [-9.2775, 38.7484], [-9.2819, 38.7512], [-9.2862, 38.7518], [-9.2855, 38.7471], [-9.2873, 38.7487], [-9.2942, 38.7465], [-9.3022, 38.7471], [-9.3024, 38.7507], [-9.3039, 38.752], [-9.3059, 38.751], [-9.2998, 38.7413], [-9.2984, 38.7327], [-9.2886, 38.7297], [-9.2872, 38.727], [-9.2907, 38.7223], [-9.2866, 38.7208], [-9.2828, 38.7146], [-9.2682, 38.7156], [-9.2731, 38.7221], [-9.2741, 38.7285], [-9.2684, 38.7264], [-9.2668, 38.7274], [-9.2598, 38.7265], [-9.2621, 38.7369], [-9.2653, 38.7398], [-9.2632, 38.7421], [-9.2651, 38.744], [-9.2601, 38.7474], [-9.2656, 38.7465], [-9.2708, 38.7489], [-9.2731, 38.7486]]]}, "properties": {"name": "Barcarena", "rating": "yellow", "info": "🟡 у Barcarena básica з 5 кл. нема; точкові інциденти (Politeira/станція)."}}, {"type": "Feature", "geometry": {"type": "Polygon", "coordinates": [[[-9.2828, 38.7146], [-9.2866, 38.7208], [-9.2907, 38.7223], [-9.2872, 38.727], [-9.2882, 38.7292], [-9.2984, 38.7327], [-9.2998, 38.7413], [-9.3059, 38.751], [-9.3085, 38.7507], [-9.3067, 38.748], [-9.3106, 38.7357], [-9.3124, 38.7334], [-9.3189, 38.7302], [-9.3162, 38.7279], [-9.3148, 38.7177], [-9.3166, 38.7176], [-9.3178, 38.7156], [-9.317, 38.7143], [-9.3188, 38.714], [-9.32, 38.7118], [-9.323, 38.7127], [-9.3201, 38.7077], [-9.3027, 38.7133], [-9.2828, 38.7146]]]}, "properties": {"name": "Porto Salvo", "rating": "yellow", "info": "🟡 секундарій #602 (дно), точкові інциденти (Navegadores)."}}, {"type": "Feature", "geometry": {"type": "Polygon", "coordinates": [[[-9.2621, 38.7136], [-9.2622, 38.7117], [-9.2662, 38.7102], [-9.2668, 38.7081], [-9.2637, 38.7069], [-9.26, 38.6996], [-9.255, 38.6996], [-9.2512, 38.6985], [-9.2513, 38.6975], [-9.2498, 38.6992], [-9.2392, 38.6983], [-9.2342, 38.6937], [-9.2348, 38.6947], [-9.2324, 38.6961], [-9.2306, 38.6944], [-9.2287, 38.6974], [-9.2264, 38.6976], [-9.2275, 38.6987], [-9.2261, 38.7042], [-9.2221, 38.7068], [-9.2233, 38.7106], [-9.2199, 38.7169], [-9.2295, 38.7164], [-9.2445, 38.721], [-9.2495, 38.7194], [-9.2552, 38.714], [-9.2621, 38.7136]]]}, "properties": {"name": "União das freguesias de Algés, Linda-a-Velha e Cruz Quebrada-Dafundo", "rating": "yellow", "info": "🟡 близько Лісабона (виключення), básica слабка, секундарій #122/#139."}}, {"type": "Feature", "geometry": {"type": "Polygon", "coordinates": [[[-9.2505, 38.7184], [-9.2435, 38.721], [-9.2331, 38.7171], [-9.2249, 38.7163], [-9.22, 38.7168], [-9.2112, 38.722], [-9.2252, 38.7344], [-9.2346, 38.7345], [-9.2339, 38.7351], [-9.2399, 38.7365], [-9.2433, 38.7358], [-9.2457, 38.737], [-9.255, 38.7334], [-9.2554, 38.7359], [-9.2574, 38.7342], [-9.2577, 38.7318], [-9.2589, 38.7336], [-9.2582, 38.7356], [-9.2628, 38.7385], [-9.2598, 38.7265], [-9.2668, 38.7274], [-9.2684, 38.7264], [-9.2741, 38.7285], [-9.2731, 38.7221], [-9.2682, 38.7156], [-9.2631, 38.7137], [-9.2567, 38.7136], [-9.2505, 38.7184]]]}, "properties": {"name": "União das freguesias de Carnaxide e Queijas", "rating": "red", "info": "🔴 УНИКАТИ: школи сильні на папері, АЛЕ соцкластер+стрілянини (Portela, Barronhos), близько Лісабона."}}, {"type": "Feature", "geometry": {"type": "Polygon", "coordinates": [[[-9.3014, 38.7135], [-9.3201, 38.7077], [-9.3193, 38.7067], [-9.3228, 38.7059], [-9.3232, 38.7036], [-9.3193, 38.6996], [-9.3297, 38.6977], [-9.329, 38.6918], [-9.3266, 38.6882], [-9.3253, 38.6882], [-9.3245, 38.6824], [-9.3231, 38.6812], [-9.3248, 38.6771], [-9.3265, 38.6771], [-9.3273, 38.6747], [-9.3259, 38.6735], [-9.3238, 38.6731], [-9.3244, 38.6748], [-9.3217, 38.6763], [-9.3174, 38.6752], [-9.3139, 38.684], [-9.3053, 38.6846], [-9.2987, 38.6895], [-9.2934, 38.6906], [-9.2908, 38.6932], [-9.2914, 38.6943], [-9.2889, 38.6958], [-9.2823, 38.6972], [-9.2809, 38.6987], [-9.2775, 38.6985], [-9.276, 38.697], [-9.26, 38.6996], [-9.2637, 38.7069], [-9.2668, 38.7081], [-9.2662, 38.7102], [-9.2622, 38.7117], [-9.2621, 38.7136], [-9.2727, 38.7161], [-9.2896, 38.7135], [-9.3014, 38.7135]]]}, "properties": {"name": "União das freguesias de Oeiras e São Julião da Barra, Paço de Arcos e Caxias", "rating": "green", "info": "🟢 НАЙКРАЩА (довга): західний Oeiras чистий, найсильніший ланцюг шкіл #122. Крос-концельо=низький пріоритет."}}]}